zip,Zipcode name,City,State,County Name
76621,"ABBOTT, TX",ABBOTT,TX,HILL
79311,"ABERNATHY, TX",ABERNATHY,TX,HALE
79601,"ABILENE, TX",ABILENE,TX,TAYLOR
79602,"ABILENE, TX",ABILENE,TX,TAYLOR
79603,"ABILENE, TX",ABILENE,TX,TAYLOR
79604,"ABILENE, TX",ABILENE,TX,TAYLOR
79605,"ABILENE, TX",ABILENE,TX,TAYLOR
79606,"ABILENE, TX",ABILENE,TX,TAYLOR
79608,"ABILENE, TX",ABILENE,TX,TAYLOR
79697,"ABILENE, TX",ABILENE,TX,TAYLOR
79698,"ABILENE, TX",ABILENE,TX,TAYLOR
79699,"ABILENE, TX",ABILENE,TX,TAYLOR
77326,"ACE, TX",ACE,TX,POLK
79713,"ACKERLY, TX",ACKERLY,TX,MARTIN
75001,"ADDISON, TX",ADDISON,TX,DALLAS
78101,"ADKINS, TX",ADKINS,TX,BEXAR
79001,"ADRIAN, TX",ADRIAN,TX,OLDHAM
79220,"AFTON, TX",AFTON,TX,DICKENS
78330,"AGUA DULCE, TX",AGUA DULCE,TX,NUECES
79221,"AIKEN, TX",AIKEN,TX,FLOYD
78516,"ALAMO, TX",ALAMO,TX,HIDALGO
79002,"ALANREED, TX",ALANREED,TX,GRAY
75410,"ALBA, TX",ALBA,TX,WOOD
76430,"ALBANY, TX",ALBANY,TX,SHACKELFORD
76008,"ALEDO, TX",ALEDO,TX,PARKER
78332,"ALICE, TX",ALICE,TX,JIM WELLS
78333,"ALICE, TX",ALICE,TX,JIM WELLS
77411,"ALIEF, TX",ALIEF,TX,HARRIS
75002,"ALLEN, TX",ALLEN,TX,COLLIN
75013,"ALLEN, TX",ALLEN,TX,COLLIN
78935,"ALLEYTON, TX",ALLEYTON,TX,COLORADO
79003,"ALLISON, TX",ALLISON,TX,WHEELER
79830,"ALPINE, TX",ALPINE,TX,BREWSTER
79831,"ALPINE, TX",ALPINE,TX,BREWSTER
79832,"ALPINE, TX",ALPINE,TX,BREWSTER
77412,"ALTAIR, TX",ALTAIR,TX,COLORADO
75925,"ALTO, TX",ALTO,TX,CHEROKEE
76009,"ALVARADO, TX",ALVARADO,TX,JOHNSON
77511,"ALVIN, TX",ALVIN,TX,BRAZORIA
77512,"ALVIN, TX",ALVIN,TX,BRAZORIA
76225,"ALVORD, TX",ALVORD,TX,WISE
79101,"AMARILLO, TX",AMARILLO,TX,POTTER
79102,"AMARILLO, TX",AMARILLO,TX,POTTER
79103,"AMARILLO, TX",AMARILLO,TX,POTTER
79104,"AMARILLO, TX",AMARILLO,TX,POTTER
79105,"AMARILLO, TX",AMARILLO,TX,POTTER
79106,"AMARILLO, TX",AMARILLO,TX,POTTER
79107,"AMARILLO, TX",AMARILLO,TX,POTTER
79108,"AMARILLO, TX",AMARILLO,TX,POTTER
79111,"AMARILLO, TX",AMARILLO,TX,POTTER
79116,"AMARILLO, TX",AMARILLO,TX,POTTER
79117,"AMARILLO, TX",AMARILLO,TX,POTTER
79120,"AMARILLO, TX",AMARILLO,TX,POTTER
79124,"AMARILLO, TX",AMARILLO,TX,POTTER
79159,"AMARILLO, TX",AMARILLO,TX,POTTER
79178,"AMARILLO, TX",AMARILLO,TX,POTTER
79109,"AMARILLO, TX",AMARILLO,TX,RANDALL
79110,"AMARILLO, TX",AMARILLO,TX,RANDALL
79114,"AMARILLO, TX",AMARILLO,TX,RANDALL
79118,"AMARILLO, TX",AMARILLO,TX,RANDALL
79119,"AMARILLO, TX",AMARILLO,TX,RANDALL
79121,"AMARILLO, TX",AMARILLO,TX,RANDALL
79312,"AMHERST, TX",AMHERST,TX,LAMB
77514,"ANAHUAC, TX",ANAHUAC,TX,CHAMBERS
77830,"ANDERSON, TX",ANDERSON,TX,GRIMES
79714,"ANDREWS, TX",ANDREWS,TX,ANDREWS
77515,"ANGLETON, TX",ANGLETON,TX,BRAZORIA
77516,"ANGLETON, TX",ANGLETON,TX,BRAZORIA
75409,"ANNA, TX",ANNA,TX,COLLIN
75550,"ANNONA, TX",ANNONA,TX,RED RIVER
79501,"ANSON, TX",ANSON,TX,JONES
79821,"ANTHONY, TX",ANTHONY,TX,EL PASO
79313,"ANTON, TX",ANTON,TX,HOCKLEY
75926,"APPLE SPRINGS, TX",APPLE SPRINGS,TX,TRINITY
76622,"AQUILLA, TX",AQUILLA,TX,HILL
78335,"ARANSAS PASS, TX",ARANSAS PASS,TX,SAN PATRICIO
78336,"ARANSAS PASS, TX",ARANSAS PASS,TX,SAN PATRICIO
76351,"ARCHER CITY, TX",ARCHER CITY,TX,ARCHER
76226,"ARGYLE, TX",ARGYLE,TX,DENTON
76001,"ARLINGTON, TX",ARLINGTON,TX,TARRANT
76002,"ARLINGTON, TX",ARLINGTON,TX,TARRANT
76003,"ARLINGTON, TX",ARLINGTON,TX,TARRANT
76004,"ARLINGTON, TX",ARLINGTON,TX,TARRANT
76005,"ARLINGTON, TX",ARLINGTON,TX,TARRANT
76006,"ARLINGTON, TX",ARLINGTON,TX,TARRANT
76007,"ARLINGTON, TX",ARLINGTON,TX,TARRANT
76010,"ARLINGTON, TX",ARLINGTON,TX,TARRANT
76011,"ARLINGTON, TX",ARLINGTON,TX,TARRANT
76012,"ARLINGTON, TX",ARLINGTON,TX,TARRANT
76013,"ARLINGTON, TX",ARLINGTON,TX,TARRANT
76014,"ARLINGTON, TX",ARLINGTON,TX,TARRANT
76015,"ARLINGTON, TX",ARLINGTON,TX,TARRANT
76016,"ARLINGTON, TX",ARLINGTON,TX,TARRANT
76017,"ARLINGTON, TX",ARLINGTON,TX,TARRANT
76018,"ARLINGTON, TX",ARLINGTON,TX,TARRANT
76019,"ARLINGTON, TX",ARLINGTON,TX,TARRANT
76094,"ARLINGTON, TX",ARLINGTON,TX,TARRANT
76096,"ARLINGTON, TX",ARLINGTON,TX,TARRANT
78338,"ARMSTRONG, TX",ARMSTRONG,TX,KENEDY
75750,"ARP, TX",ARP,TX,SMITH
78001,"ARTESIA WELLS, TX",ARTESIA WELLS,TX,LA SALLE
75411,"ARTHUR CITY, TX",ARTHUR CITY,TX,LAMAR
78827,"ASHERTON, TX",ASHERTON,TX,DIMMIT
79502,"ASPERMONT, TX",ASPERMONT,TX,STONEWALL
78002,"ATASCOSA, TX",ATASCOSA,TX,BEXAR
75751,"ATHENS, TX",ATHENS,TX,HENDERSON
75752,"ATHENS, TX",ATHENS,TX,HENDERSON
75551,"ATLANTA, TX",ATLANTA,TX,CASS
76227,"AUBREY, TX",AUBREY,TX,DENTON
78737,"AUSTIN, TX",AUSTIN,TX,HAYS
73301,"AUSTIN, TX",AUSTIN,TX,TRAVIS
73344,"AUSTIN, TX",AUSTIN,TX,TRAVIS
78701,"AUSTIN, TX",AUSTIN,TX,TRAVIS
78702,"AUSTIN, TX",AUSTIN,TX,TRAVIS
78703,"AUSTIN, TX",AUSTIN,TX,TRAVIS
78704,"AUSTIN, TX",AUSTIN,TX,TRAVIS
78705,"AUSTIN, TX",AUSTIN,TX,TRAVIS
78708,"AUSTIN, TX",AUSTIN,TX,TRAVIS
78709,"AUSTIN, TX",AUSTIN,TX,TRAVIS
78710,"AUSTIN, TX",AUSTIN,TX,TRAVIS
78711,"AUSTIN, TX",AUSTIN,TX,TRAVIS
78712,"AUSTIN, TX",AUSTIN,TX,TRAVIS
78713,"AUSTIN, TX",AUSTIN,TX,TRAVIS
78714,"AUSTIN, TX",AUSTIN,TX,TRAVIS
78715,"AUSTIN, TX",AUSTIN,TX,TRAVIS
78716,"AUSTIN, TX",AUSTIN,TX,TRAVIS
78718,"AUSTIN, TX",AUSTIN,TX,TRAVIS
78719,"AUSTIN, TX",AUSTIN,TX,TRAVIS
78720,"AUSTIN, TX",AUSTIN,TX,TRAVIS
78721,"AUSTIN, TX",AUSTIN,TX,TRAVIS
78722,"AUSTIN, TX",AUSTIN,TX,TRAVIS
78723,"AUSTIN, TX",AUSTIN,TX,TRAVIS
78724,"AUSTIN, TX",AUSTIN,TX,TRAVIS
78725,"AUSTIN, TX",AUSTIN,TX,TRAVIS
78726,"AUSTIN, TX",AUSTIN,TX,TRAVIS
78727,"AUSTIN, TX",AUSTIN,TX,TRAVIS
78728,"AUSTIN, TX",AUSTIN,TX,TRAVIS
78730,"AUSTIN, TX",AUSTIN,TX,TRAVIS
78731,"AUSTIN, TX",AUSTIN,TX,TRAVIS
78732,"AUSTIN, TX",AUSTIN,TX,TRAVIS
78733,"AUSTIN, TX",AUSTIN,TX,TRAVIS
78734,"AUSTIN, TX",AUSTIN,TX,TRAVIS
78735,"AUSTIN, TX",AUSTIN,TX,TRAVIS
78736,"AUSTIN, TX",AUSTIN,TX,TRAVIS
78738,"AUSTIN, TX",AUSTIN,TX,TRAVIS
78739,"AUSTIN, TX",AUSTIN,TX,TRAVIS
78741,"AUSTIN, TX",AUSTIN,TX,TRAVIS
78742,"AUSTIN, TX",AUSTIN,TX,TRAVIS
78744,"AUSTIN, TX",AUSTIN,TX,TRAVIS
78745,"AUSTIN, TX",AUSTIN,TX,TRAVIS
78746,"AUSTIN, TX",AUSTIN,TX,TRAVIS
78747,"AUSTIN, TX",AUSTIN,TX,TRAVIS
78748,"AUSTIN, TX",AUSTIN,TX,TRAVIS
78749,"AUSTIN, TX",AUSTIN,TX,TRAVIS
78750,"AUSTIN, TX",AUSTIN,TX,TRAVIS
78751,"AUSTIN, TX",AUSTIN,TX,TRAVIS
78752,"AUSTIN, TX",AUSTIN,TX,TRAVIS
78753,"AUSTIN, TX",AUSTIN,TX,TRAVIS
78754,"AUSTIN, TX",AUSTIN,TX,TRAVIS
78755,"AUSTIN, TX",AUSTIN,TX,TRAVIS
78756,"AUSTIN, TX",AUSTIN,TX,TRAVIS
78757,"AUSTIN, TX",AUSTIN,TX,TRAVIS
78758,"AUSTIN, TX",AUSTIN,TX,TRAVIS
78759,"AUSTIN, TX",AUSTIN,TX,TRAVIS
78760,"AUSTIN, TX",AUSTIN,TX,TRAVIS
78761,"AUSTIN, TX",AUSTIN,TX,TRAVIS
78762,"AUSTIN, TX",AUSTIN,TX,TRAVIS
78763,"AUSTIN, TX",AUSTIN,TX,TRAVIS
78764,"AUSTIN, TX",AUSTIN,TX,TRAVIS
78765,"AUSTIN, TX",AUSTIN,TX,TRAVIS
78766,"AUSTIN, TX",AUSTIN,TX,TRAVIS
78767,"AUSTIN, TX",AUSTIN,TX,TRAVIS
78768,"AUSTIN, TX",AUSTIN,TX,TRAVIS
78772,"AUSTIN, TX",AUSTIN,TX,TRAVIS
78774,"AUSTIN, TX",AUSTIN,TX,TRAVIS
78778,"AUSTIN, TX",AUSTIN,TX,TRAVIS
78717,"AUSTIN, TX",AUSTIN,TX,WILLIAMSON
78729,"AUSTIN, TX",AUSTIN,TX,WILLIAMSON
77950,"AUSTWELL, TX",AUSTWELL,TX,REFUGIO
76623,"AVALON, TX",AVALON,TX,ELLIS
75554,"AVERY, TX",AVERY,TX,RED RIVER
75630,"AVINGER, TX",AVINGER,TX,CASS
79503,"AVOCA, TX",AVOCA,TX,JONES
76624,"AXTELL, TX",AXTELL,TX,MCLENNAN
76098,"AZLE, TX",AZLE,TX,PARKER
76020,"AZLE, TX",AZLE,TX,TARRANT
77518,"BACLIFF, TX",BACLIFF,TX,GALVESTON
75412,"BAGWELL, TX",BAGWELL,TX,RED RIVER
75413,"BAILEY, TX",BAILEY,TX,FANNIN
79504,"BAIRD, TX",BAIRD,TX,CALLAHAN
75180,"BALCH SPRINGS, TX",BALCH SPRINGS,TX,DALLAS
76821,"BALLINGER, TX",BALLINGER,TX,RUNNELS
79718,"BALMORHEA, TX",BALMORHEA,TX,REEVES
78003,"BANDERA, TX",BANDERA,TX,BANDERA
76823,"BANGS, TX",BANGS,TX,BROWN
78339,"BANQUETE, TX",BANQUETE,TX,NUECES
75101,"BARDWELL, TX",BARDWELL,TX,ELLIS
77413,"BARKER, TX",BARKER,TX,HARRIS
78828,"BARKSDALE, TX",BARKSDALE,TX,EDWARDS
76930,"BARNHART, TX",BARNHART,TX,IRION
75102,"BARRY, TX",BARRY,TX,NAVARRO
79719,"BARSTOW, TX",BARSTOW,TX,WARD
76511,"BARTLETT, TX",BARTLETT,TX,BELL
78602,"BASTROP, TX",BASTROP,TX,BASTROP
78829,"BATESVILLE, TX",BATESVILLE,TX,ZAVALA
77519,"BATSON, TX",BATSON,TX,HARDIN
77404,"BAY CITY, TX",BAY CITY,TX,MATAGORDA
77414,"BAY CITY, TX",BAY CITY,TX,MATAGORDA
78340,"BAYSIDE, TX",BAYSIDE,TX,REFUGIO
77523,"BAYTOWN, TX",BAYTOWN,TX,CHAMBERS
77520,"BAYTOWN, TX",BAYTOWN,TX,HARRIS
77521,"BAYTOWN, TX",BAYTOWN,TX,HARRIS
77522,"BAYTOWN, TX",BAYTOWN,TX,HARRIS
77417,"BEASLEY, TX",BEASLEY,TX,FORT BEND
77701,"BEAUMONT, TX",BEAUMONT,TX,JEFFERSON
77702,"BEAUMONT, TX",BEAUMONT,TX,JEFFERSON
77703,"BEAUMONT, TX",BEAUMONT,TX,JEFFERSON
77704,"BEAUMONT, TX",BEAUMONT,TX,JEFFERSON
77705,"BEAUMONT, TX",BEAUMONT,TX,JEFFERSON
77706,"BEAUMONT, TX",BEAUMONT,TX,JEFFERSON
77707,"BEAUMONT, TX",BEAUMONT,TX,JEFFERSON
77708,"BEAUMONT, TX",BEAUMONT,TX,JEFFERSON
77709,"BEAUMONT, TX",BEAUMONT,TX,JEFFERSON
77710,"BEAUMONT, TX",BEAUMONT,TX,JEFFERSON
77713,"BEAUMONT, TX",BEAUMONT,TX,JEFFERSON
77720,"BEAUMONT, TX",BEAUMONT,TX,JEFFERSON
77725,"BEAUMONT, TX",BEAUMONT,TX,JEFFERSON
77726,"BEAUMONT, TX",BEAUMONT,TX,JEFFERSON
75631,"BECKVILLE, TX",BECKVILLE,TX,PANOLA
76021,"BEDFORD, TX",BEDFORD,TX,TARRANT
76022,"BEDFORD, TX",BEDFORD,TX,TARRANT
76095,"BEDFORD, TX",BEDFORD,TX,TARRANT
77831,"BEDIAS, TX",BEDIAS,TX,GRIMES
78102,"BEEVILLE, TX",BEEVILLE,TX,BEE
78104,"BEEVILLE, TX",BEEVILLE,TX,BEE
77401,"BELLAIRE, TX",BELLAIRE,TX,HARRIS
77402,"BELLAIRE, TX",BELLAIRE,TX,HARRIS
76228,"BELLEVUE, TX",BELLEVUE,TX,CLAY
75414,"BELLS, TX",BELLS,TX,GRAYSON
77418,"BELLVILLE, TX",BELLVILLE,TX,AUSTIN
78604,"BELMONT, TX",BELMONT,TX,GONZALES
76513,"BELTON, TX",BELTON,TX,BELL
78342,"BEN BOLT, TX",BEN BOLT,TX,JIM WELLS
75754,"BEN WHEELER, TX",BEN WHEELER,TX,VAN ZANDT
78341,"BENAVIDES, TX",BENAVIDES,TX,DUVAL
76824,"BEND, TX",BEND,TX,SAN SABA
79505,"BENJAMIN, TX",BENJAMIN,TX,KNOX
78107,"BERCLAIR, TX",BERCLAIR,TX,GOLIAD
78004,"BERGHEIM, TX",BERGHEIM,TX,KENDALL
78605,"BERTRAM, TX",BERTRAM,TX,BURNET
79834,"BIG BEND NATIONAL PARK, TX",BIG BEND NATIONAL PARK,TX,BREWSTER
76932,"BIG LAKE, TX",BIG LAKE,TX,REAGAN
75755,"BIG SANDY, TX",BIG SANDY,TX,UPSHUR
79720,"BIG SPRING, TX",BIG SPRING,TX,HOWARD
79721,"BIG SPRING, TX",BIG SPRING,TX,HOWARD
78830,"BIG WELLS, TX",BIG WELLS,TX,DIMMIT
78005,"BIGFOOT, TX",BIGFOOT,TX,FRIO
78343,"BISHOP, TX",BISHOP,TX,NUECES
75555,"BIVINS, TX",BIVINS,TX,CASS
79506,"BLACKWELL, TX",BLACKWELL,TX,NOLAN
78606,"BLANCO, TX",BLANCO,TX,BLANCO
76432,"BLANKET, TX",BLANKET,TX,BROWN
79314,"BLEDSOE, TX",BLEDSOE,TX,COCHRAN
78931,"BLEIBLERVILLE, TX",BLEIBLERVILLE,TX,AUSTIN
77419,"BLESSING, TX",BLESSING,TX,MATAGORDA
75556,"BLOOMBURG, TX",BLOOMBURG,TX,CASS
76626,"BLOOMING GROVE, TX",BLOOMING GROVE,TX,NAVARRO
77951,"BLOOMINGTON, TX",BLOOMINGTON,TX,VICTORIA
75416,"BLOSSOM, TX",BLOSSOM,TX,LAMAR
75424,"BLUE RIDGE, TX",BLUE RIDGE,TX,COLLIN
76433,"BLUFF DALE, TX",BLUFF DALE,TX,ERATH
78607,"BLUFFTON, TX",BLUFFTON,TX,LLANO
76627,"BLUM, TX",BLUM,TX,HILL
78006,"BOERNE, TX",BOERNE,TX,KENDALL
78015,"BOERNE, TX",BOERNE,TX,KENDALL
75417,"BOGATA, TX",BOGATA,TX,RED RIVER
77420,"BOLING, TX",BOLING,TX,WHARTON
75928,"BON WIER, TX",BON WIER,TX,NEWTON
75418,"BONHAM, TX",BONHAM,TX,FANNIN
79005,"BOOKER, TX",BOOKER,TX,LIPSCOMB
79007,"BORGER, TX",BORGER,TX,HUTCHINSON
79008,"BORGER, TX",BORGER,TX,HUTCHINSON
79009,"BOVINA, TX",BOVINA,TX,PARMER
76230,"BOWIE, TX",BOWIE,TX,MONTAGUE
76023,"BOYD, TX",BOYD,TX,WISE
79010,"BOYS RANCH, TX",BOYS RANCH,TX,OLDHAM
78832,"BRACKETTVILLE, TX",BRACKETTVILLE,TX,KINNEY
76825,"BRADY, TX",BRADY,TX,MCCULLOCH
76628,"BRANDON, TX",BRANDON,TX,HILL
75420,"BRASHEAR, TX",BRASHEAR,TX,HOPKINS
77422,"BRAZORIA, TX",BRAZORIA,TX,BRAZORIA
76424,"BRECKENRIDGE, TX",BRECKENRIDGE,TX,STEPHENS
76629,"BREMOND, TX",BREMOND,TX,ROBERTSON
77833,"BRENHAM, TX",BRENHAM,TX,WASHINGTON
77834,"BRENHAM, TX",BRENHAM,TX,WASHINGTON
77611,"BRIDGE CITY, TX",BRIDGE CITY,TX,ORANGE
76426,"BRIDGEPORT, TX",BRIDGEPORT,TX,WISE
78608,"BRIGGS, TX",BRIGGS,TX,BURNET
79011,"BRISCOE, TX",BRISCOE,TX,WHEELER
75929,"BROADDUS, TX",BROADDUS,TX,SAN AUGUSTINE
75930,"BRONSON, TX",BRONSON,TX,SABINE
76933,"BRONTE, TX",BRONTE,TX,COKE
75931,"BROOKELAND, TX",BROOKELAND,TX,JASPER
76827,"BROOKESMITH, TX",BROOKESMITH,TX,BROWN
77423,"BROOKSHIRE, TX",BROOKSHIRE,TX,WALLER
75421,"BROOKSTON, TX",BROOKSTON,TX,LAMAR
79316,"BROWNFIELD, TX",BROWNFIELD,TX,TERRY
75756,"BROWNSBORO, TX",BROWNSBORO,TX,HENDERSON
78520,"BROWNSVILLE, TX",BROWNSVILLE,TX,CAMERON
78521,"BROWNSVILLE, TX",BROWNSVILLE,TX,CAMERON
78522,"BROWNSVILLE, TX",BROWNSVILLE,TX,CAMERON
78523,"BROWNSVILLE, TX",BROWNSVILLE,TX,CAMERON
78526,"BROWNSVILLE, TX",BROWNSVILLE,TX,CAMERON
76801,"BROWNWOOD, TX",BROWNWOOD,TX,BROWN
76804,"BROWNWOOD, TX",BROWNWOOD,TX,BROWN
76630,"BRUCEVILLE, TX",BRUCEVILLE,TX,MCLENNAN
78344,"BRUNI, TX",BRUNI,TX,WEBB
77801,"BRYAN, TX",BRYAN,TX,BRAZOS
77802,"BRYAN, TX",BRYAN,TX,BRAZOS
77803,"BRYAN, TX",BRYAN,TX,BRAZOS
77805,"BRYAN, TX",BRYAN,TX,BRAZOS
77806,"BRYAN, TX",BRYAN,TX,BRAZOS
77807,"BRYAN, TX",BRYAN,TX,BRAZOS
77808,"BRYAN, TX",BRYAN,TX,BRAZOS
76427,"BRYSON, TX",BRYSON,TX,JACK
78609,"BUCHANAN DAM, TX",BUCHANAN DAM,TX,LLANO
76518,"BUCKHOLTS, TX",BUCKHOLTS,TX,MILAM
78610,"BUDA, TX",BUDA,TX,HAYS
75831,"BUFFALO, TX",BUFFALO,TX,LEON
79508,"BUFFALO GAP, TX",BUFFALO GAP,TX,TAYLOR
75757,"BULLARD, TX",BULLARD,TX,SMITH
78163,"BULVERDE, TX",BULVERDE,TX,COMAL
77612,"BUNA, TX",BUNA,TX,JASPER
76354,"BURKBURNETT, TX",BURKBURNETT,TX,WICHITA
75932,"BURKEVILLE, TX",BURKEVILLE,TX,NEWTON
76028,"BURLESON, TX",BURLESON,TX,JOHNSON
76097,"BURLESON, TX",BURLESON,TX,JOHNSON
76519,"BURLINGTON, TX",BURLINGTON,TX,MILAM
78611,"BURNET, TX",BURNET,TX,BURNET
77835,"BURTON, TX",BURTON,TX,WASHINGTON
79012,"BUSHLAND, TX",BUSHLAND,TX,POTTER
76357,"BYERS, TX",BYERS,TX,CLAY
76631,"BYNUM, TX",BYNUM,TX,HILL
79013,"CACTUS, TX",CACTUS,TX,MOORE
76429,"CADDO, TX",CADDO,TX,STEPHENS
75135,"CADDO MILLS, TX",CADDO MILLS,TX,HUNT
77836,"CALDWELL, TX",CALDWELL,TX,BURLESON
75933,"CALL, TX",CALL,TX,NEWTON
78007,"CALLIHAM, TX",CALLIHAM,TX,MCMULLEN
77837,"CALVERT, TX",CALVERT,TX,ROBERTSON
75934,"CAMDEN, TX",CAMDEN,TX,POLK
76520,"CAMERON, TX",CAMERON,TX,MILAM
78833,"CAMP WOOD, TX",CAMP WOOD,TX,REAL
75422,"CAMPBELL, TX",CAMPBELL,TX,HUNT
78008,"CAMPBELLTON, TX",CAMPBELLTON,TX,ATASCOSA
79014,"CANADIAN, TX",CANADIAN,TX,HEMPHILL
75103,"CANTON, TX",CANTON,TX,VAN ZANDT
79835,"CANUTILLO, TX",CANUTILLO,TX,EL PASO
79015,"CANYON, TX",CANYON,TX,RANDALL
79016,"CANYON, TX",CANYON,TX,RANDALL
78133,"CANYON LAKE, TX",CANYON LAKE,TX,COMAL
76435,"CARBON, TX",CARBON,TX,EASTLAND
76934,"CARLSBAD, TX",CARLSBAD,TX,TOM GREEN
76436,"CARLTON, TX",CARLTON,TX,HAMILTON
78932,"CARMINE, TX",CARMINE,TX,FAYETTE
78834,"CARRIZO SPRINGS, TX",CARRIZO SPRINGS,TX,DIMMIT
75006,"CARROLLTON, TX",CARROLLTON,TX,DALLAS
75011,"CARROLLTON, TX",CARROLLTON,TX,DALLAS
75007,"CARROLLTON, TX",CARROLLTON,TX,DENTON
75010,"CARROLLTON, TX",CARROLLTON,TX,DENTON
75633,"CARTHAGE, TX",CARTHAGE,TX,PANOLA
75636,"CASON, TX",CASON,TX,MORRIS
76831,"CASTELL, TX",CASTELL,TX,LLANO
78009,"CASTROVILLE, TX",CASTROVILLE,TX,MEDINA
78933,"CAT SPRING, TX",CAT SPRING,TX,AUSTIN
78836,"CATARINA, TX",CATARINA,TX,DIMMIT
75832,"CAYUGA, TX",CAYUGA,TX,ANDERSON
78612,"CEDAR CREEK, TX",CEDAR CREEK,TX,BASTROP
75104,"CEDAR HILL, TX",CEDAR HILL,TX,DALLAS
75106,"CEDAR HILL, TX",CEDAR HILL,TX,DALLAS
77415,"CEDAR LANE, TX",CEDAR LANE,TX,MATAGORDA
78613,"CEDAR PARK, TX",CEDAR PARK,TX,WILLIAMSON
78630,"CEDAR PARK, TX",CEDAR PARK,TX,WILLIAMSON
75423,"CELESTE, TX",CELESTE,TX,HUNT
75009,"CELINA, TX",CELINA,TX,COLLIN
75935,"CENTER, TX",CENTER,TX,SHELBY
78010,"CENTER POINT, TX",CENTER POINT,TX,KERR
75833,"CENTERVILLE, TX",CENTERVILLE,TX,LEON
75758,"CHANDLER, TX",CHANDLER,TX,HENDERSON
77530,"CHANNELVIEW, TX",CHANNELVIEW,TX,HARRIS
79018,"CHANNING, TX",CHANNING,TX,HARTLEY
77426,"CHAPPELL HILL, TX",CHAPPELL HILL,TX,WASHINGTON
78011,"CHARLOTTE, TX",CHARLOTTE,TX,ATASCOSA
75105,"CHATFIELD, TX",CHATFIELD,TX,NAVARRO
76832,"CHEROKEE, TX",CHEROKEE,TX,SAN SABA
75936,"CHESTER, TX",CHESTER,TX,TYLER
76431,"CHICO, TX",CHICO,TX,WISE
79201,"CHILDRESS, TX",CHILDRESS,TX,CHILDRESS
79225,"CHILLICOTHE, TX",CHILLICOTHE,TX,HARDEMAN
76632,"CHILTON, TX",CHILTON,TX,FALLS
77613,"CHINA, TX",CHINA,TX,JEFFERSON
76633,"CHINA SPRING, TX",CHINA SPRING,TX,MCLENNAN
75937,"CHIRENO, TX",CHIRENO,TX,NACOGDOCHES
77838,"CHRIESMAN, TX",CHRIESMAN,TX,BURLESON
78012,"CHRISTINE, TX",CHRISTINE,TX,ATASCOSA
76935,"CHRISTOVAL, TX",CHRISTOVAL,TX,TOM GREEN
78108,"CIBOLO, TX",CIBOLO,TX,GUADALUPE
76437,"CISCO, TX",CISCO,TX,EASTLAND
79226,"CLARENDON, TX",CLARENDON,TX,DONLEY
75426,"CLARKSVILLE, TX",CLARKSVILLE,TX,RED RIVER
79019,"CLAUDE, TX",CLAUDE,TX,ARMSTRONG
75637,"CLAYTON, TX",CLAYTON,TX,PANOLA
76031,"CLEBURNE, TX",CLEBURNE,TX,JOHNSON
76033,"CLEBURNE, TX",CLEBURNE,TX,JOHNSON
77327,"CLEVELAND, TX",CLEVELAND,TX,LIBERTY
77328,"CLEVELAND, TX",CLEVELAND,TX,LIBERTY
76634,"CLIFTON, TX",CLIFTON,TX,BOSQUE
79836,"CLINT, TX",CLINT,TX,EL PASO
77531,"CLUTE, TX",CLUTE,TX,BRAZORIA
79510,"CLYDE, TX",CLYDE,TX,CALLAHAN
79511,"COAHOMA, TX",COAHOMA,TX,HOWARD
77331,"COLDSPRING, TX",COLDSPRING,TX,SAN JACINTO
76834,"COLEMAN, TX",COLEMAN,TX,COLEMAN
77840,"COLLEGE STATION, TX",COLLEGE STATION,TX,BRAZOS
77841,"COLLEGE STATION, TX",COLLEGE STATION,TX,BRAZOS
77842,"COLLEGE STATION, TX",COLLEGE STATION,TX,BRAZOS
77843,"COLLEGE STATION, TX",COLLEGE STATION,TX,BRAZOS
77844,"COLLEGE STATION, TX",COLLEGE STATION,TX,BRAZOS
77845,"COLLEGE STATION, TX",COLLEGE STATION,TX,BRAZOS
76034,"COLLEYVILLE, TX",COLLEYVILLE,TX,TARRANT
76233,"COLLINSVILLE, TX",COLLINSVILLE,TX,GRAYSON
75938,"COLMESNEIL, TX",COLMESNEIL,TX,TYLER
79512,"COLORADO CITY, TX",COLORADO CITY,TX,MITCHELL
78934,"COLUMBUS, TX",COLUMBUS,TX,COLORADO
76442,"COMANCHE, TX",COMANCHE,TX,COMANCHE
78535,"COMBES, TX",COMBES,TX,CAMERON
78013,"COMFORT, TX",COMFORT,TX,KENDALL
75428,"COMMERCE, TX",COMMERCE,TX,HUNT
75429,"COMMERCE, TX",COMMERCE,TX,HUNT
75431,"COMO, TX",COMO,TX,HOPKINS
78838,"CONCAN, TX",CONCAN,TX,UVALDE
77850,"CONCORD, TX",CONCORD,TX,LEON
77301,"CONROE, TX",CONROE,TX,MONTGOMERY
77302,"CONROE, TX",CONROE,TX,MONTGOMERY
77303,"CONROE, TX",CONROE,TX,MONTGOMERY
77304,"CONROE, TX",CONROE,TX,MONTGOMERY
77305,"CONROE, TX",CONROE,TX,MONTGOMERY
77306,"CONROE, TX",CONROE,TX,MONTGOMERY
77384,"CONROE, TX",CONROE,TX,MONTGOMERY
77385,"CONROE, TX",CONROE,TX,MONTGOMERY
78109,"CONVERSE, TX",CONVERSE,TX,BEXAR
75558,"COOKVILLE, TX",COOKVILLE,TX,TITUS
76635,"COOLIDGE, TX",COOLIDGE,TX,LIMESTONE
75432,"COOPER, TX",COOPER,TX,DELTA
75121,"COPEVILLE, TX",COPEVILLE,TX,COLLIN
75019,"COPPELL, TX",COPPELL,TX,DALLAS
75099,"COPPELL, TX",COPPELL,TX,DALLAS
76522,"COPPERAS COVE, TX",COPPERAS COVE,TX,CORYELL
78401,"CORPUS CHRISTI, TX",CORPUS CHRISTI,TX,NUECES
78402,"CORPUS CHRISTI, TX",CORPUS CHRISTI,TX,NUECES
78403,"CORPUS CHRISTI, TX",CORPUS CHRISTI,TX,NUECES
78404,"CORPUS CHRISTI, TX",CORPUS CHRISTI,TX,NUECES
78405,"CORPUS CHRISTI, TX",CORPUS CHRISTI,TX,NUECES
78406,"CORPUS CHRISTI, TX",CORPUS CHRISTI,TX,NUECES
78407,"CORPUS CHRISTI, TX",CORPUS CHRISTI,TX,NUECES
78408,"CORPUS CHRISTI, TX",CORPUS CHRISTI,TX,NUECES
78409,"CORPUS CHRISTI, TX",CORPUS CHRISTI,TX,NUECES
78410,"CORPUS CHRISTI, TX",CORPUS CHRISTI,TX,NUECES
78411,"CORPUS CHRISTI, TX",CORPUS CHRISTI,TX,NUECES
78412,"CORPUS CHRISTI, TX",CORPUS CHRISTI,TX,NUECES
78413,"CORPUS CHRISTI, TX",CORPUS CHRISTI,TX,NUECES
78414,"CORPUS CHRISTI, TX",CORPUS CHRISTI,TX,NUECES
78415,"CORPUS CHRISTI, TX",CORPUS CHRISTI,TX,NUECES
78416,"CORPUS CHRISTI, TX",CORPUS CHRISTI,TX,NUECES
78417,"CORPUS CHRISTI, TX",CORPUS CHRISTI,TX,NUECES
78418,"CORPUS CHRISTI, TX",CORPUS CHRISTI,TX,NUECES
78419,"CORPUS CHRISTI, TX",CORPUS CHRISTI,TX,NUECES
78426,"CORPUS CHRISTI, TX",CORPUS CHRISTI,TX,NUECES
78427,"CORPUS CHRISTI, TX",CORPUS CHRISTI,TX,NUECES
78460,"CORPUS CHRISTI, TX",CORPUS CHRISTI,TX,NUECES
78463,"CORPUS CHRISTI, TX",CORPUS CHRISTI,TX,NUECES
78465,"CORPUS CHRISTI, TX",CORPUS CHRISTI,TX,NUECES
78466,"CORPUS CHRISTI, TX",CORPUS CHRISTI,TX,NUECES
78467,"CORPUS CHRISTI, TX",CORPUS CHRISTI,TX,NUECES
78468,"CORPUS CHRISTI, TX",CORPUS CHRISTI,TX,NUECES
78469,"CORPUS CHRISTI, TX",CORPUS CHRISTI,TX,NUECES
78472,"CORPUS CHRISTI, TX",CORPUS CHRISTI,TX,NUECES
78480,"CORPUS CHRISTI, TX",CORPUS CHRISTI,TX,NUECES
75939,"CORRIGAN, TX",CORRIGAN,TX,POLK
75109,"CORSICANA, TX",CORSICANA,TX,NAVARRO
75110,"CORSICANA, TX",CORSICANA,TX,NAVARRO
75151,"CORSICANA, TX",CORSICANA,TX,NAVARRO
78614,"COST, TX",COST,TX,GONZALES
79021,"COTTON CENTER, TX",COTTON CENTER,TX,HALE
78014,"COTULLA, TX",COTULLA,TX,LA SALLE
78615,"COUPLAND, TX",COUPLAND,TX,WILLIAMSON
76636,"COVINGTON, TX",COVINGTON,TX,HILL
79730,"COYANOSA, TX",COYANOSA,TX,PECOS
75114,"CRANDALL, TX",CRANDALL,TX,KAUFMAN
79731,"CRANE, TX",CRANE,TX,CRANE
76637,"CRANFILLS GAP, TX",CRANFILLS GAP,TX,BOSQUE
76638,"CRAWFORD, TX",CRAWFORD,TX,MCLENNAN
76035,"CRESSON, TX",CRESSON,TX,HOOD
75835,"CROCKETT, TX",CROCKETT,TX,HOUSTON
77532,"CROSBY, TX",CROSBY,TX,HARRIS
79322,"CROSBYTON, TX",CROSBYTON,TX,CROSBY
76443,"CROSS PLAINS, TX",CROSS PLAINS,TX,CALLAHAN
79227,"CROWELL, TX",CROWELL,TX,FOARD
76036,"CROWLEY, TX",CROWLEY,TX,TARRANT
78839,"CRYSTAL CITY, TX",CRYSTAL CITY,TX,ZAVALA
77954,"CUERO, TX",CUERO,TX,DE WITT
75433,"CUMBY, TX",CUMBY,TX,HOPKINS
75759,"CUNEY, TX",CUNEY,TX,CHEROKEE
75434,"CUNNINGHAM, TX",CUNNINGHAM,TX,LAMAR
75760,"CUSHING, TX",CUSHING,TX,NACOGDOCHES
77410,"CYPRESS, TX",CYPRESS,TX,HARRIS
77429,"CYPRESS, TX",CYPRESS,TX,HARRIS
77433,"CYPRESS, TX",CYPRESS,TX,HARRIS
78850,"D HANIS, TX",D HANIS,TX,MEDINA
75638,"DAINGERFIELD, TX",DAINGERFIELD,TX,MORRIS
77533,"DAISETTA, TX",DAISETTA,TX,LIBERTY
78616,"DALE, TX",DALE,TX,CALDWELL
79022,"DALHART, TX",DALHART,TX,DALLAM
77332,"DALLARDSVILLE, TX",DALLARDSVILLE,TX,POLK
75252,"DALLAS, TX",DALLAS,TX,COLLIN
75287,"DALLAS, TX",DALLAS,TX,COLLIN
75201,"DALLAS, TX",DALLAS,TX,DALLAS
75202,"DALLAS, TX",DALLAS,TX,DALLAS
75203,"DALLAS, TX",DALLAS,TX,DALLAS
75204,"DALLAS, TX",DALLAS,TX,DALLAS
75205,"DALLAS, TX",DALLAS,TX,DALLAS
75206,"DALLAS, TX",DALLAS,TX,DALLAS
75207,"DALLAS, TX",DALLAS,TX,DALLAS
75208,"DALLAS, TX",DALLAS,TX,DALLAS
75209,"DALLAS, TX",DALLAS,TX,DALLAS
75210,"DALLAS, TX",DALLAS,TX,DALLAS
75211,"DALLAS, TX",DALLAS,TX,DALLAS
75212,"DALLAS, TX",DALLAS,TX,DALLAS
75214,"DALLAS, TX",DALLAS,TX,DALLAS
75215,"DALLAS, TX",DALLAS,TX,DALLAS
75216,"DALLAS, TX",DALLAS,TX,DALLAS
75217,"DALLAS, TX",DALLAS,TX,DALLAS
75218,"DALLAS, TX",DALLAS,TX,DALLAS
75219,"DALLAS, TX",DALLAS,TX,DALLAS
75220,"DALLAS, TX",DALLAS,TX,DALLAS
75221,"DALLAS, TX",DALLAS,TX,DALLAS
75222,"DALLAS, TX",DALLAS,TX,DALLAS
75223,"DALLAS, TX",DALLAS,TX,DALLAS
75224,"DALLAS, TX",DALLAS,TX,DALLAS
75225,"DALLAS, TX",DALLAS,TX,DALLAS
75226,"DALLAS, TX",DALLAS,TX,DALLAS
75227,"DALLAS, TX",DALLAS,TX,DALLAS
75228,"DALLAS, TX",DALLAS,TX,DALLAS
75229,"DALLAS, TX",DALLAS,TX,DALLAS
75230,"DALLAS, TX",DALLAS,TX,DALLAS
75231,"DALLAS, TX",DALLAS,TX,DALLAS
75232,"DALLAS, TX",DALLAS,TX,DALLAS
75233,"DALLAS, TX",DALLAS,TX,DALLAS
75234,"DALLAS, TX",DALLAS,TX,DALLAS
75235,"DALLAS, TX",DALLAS,TX,DALLAS
75236,"DALLAS, TX",DALLAS,TX,DALLAS
75237,"DALLAS, TX",DALLAS,TX,DALLAS
75238,"DALLAS, TX",DALLAS,TX,DALLAS
75240,"DALLAS, TX",DALLAS,TX,DALLAS
75241,"DALLAS, TX",DALLAS,TX,DALLAS
75242,"DALLAS, TX",DALLAS,TX,DALLAS
75243,"DALLAS, TX",DALLAS,TX,DALLAS
75244,"DALLAS, TX",DALLAS,TX,DALLAS
75246,"DALLAS, TX",DALLAS,TX,DALLAS
75247,"DALLAS, TX",DALLAS,TX,DALLAS
75248,"DALLAS, TX",DALLAS,TX,DALLAS
75249,"DALLAS, TX",DALLAS,TX,DALLAS
75250,"DALLAS, TX",DALLAS,TX,DALLAS
75251,"DALLAS, TX",DALLAS,TX,DALLAS
75253,"DALLAS, TX",DALLAS,TX,DALLAS
75254,"DALLAS, TX",DALLAS,TX,DALLAS
75260,"DALLAS, TX",DALLAS,TX,DALLAS
75261,"DALLAS, TX",DALLAS,TX,DALLAS
75265,"DALLAS, TX",DALLAS,TX,DALLAS
75266,"DALLAS, TX",DALLAS,TX,DALLAS
75270,"DALLAS, TX",DALLAS,TX,DALLAS
75275,"DALLAS, TX",DALLAS,TX,DALLAS
75277,"DALLAS, TX",DALLAS,TX,DALLAS
75283,"DALLAS, TX",DALLAS,TX,DALLAS
75301,"DALLAS, TX",DALLAS,TX,DALLAS
75312,"DALLAS, TX",DALLAS,TX,DALLAS
75313,"DALLAS, TX",DALLAS,TX,DALLAS
75315,"DALLAS, TX",DALLAS,TX,DALLAS
75320,"DALLAS, TX",DALLAS,TX,DALLAS
75326,"DALLAS, TX",DALLAS,TX,DALLAS
75336,"DALLAS, TX",DALLAS,TX,DALLAS
75339,"DALLAS, TX",DALLAS,TX,DALLAS
75342,"DALLAS, TX",DALLAS,TX,DALLAS
75354,"DALLAS, TX",DALLAS,TX,DALLAS
75355,"DALLAS, TX",DALLAS,TX,DALLAS
75356,"DALLAS, TX",DALLAS,TX,DALLAS
75357,"DALLAS, TX",DALLAS,TX,DALLAS
75359,"DALLAS, TX",DALLAS,TX,DALLAS
75360,"DALLAS, TX",DALLAS,TX,DALLAS
75367,"DALLAS, TX",DALLAS,TX,DALLAS
75370,"DALLAS, TX",DALLAS,TX,DALLAS
75371,"DALLAS, TX",DALLAS,TX,DALLAS
75372,"DALLAS, TX",DALLAS,TX,DALLAS
75374,"DALLAS, TX",DALLAS,TX,DALLAS
75376,"DALLAS, TX",DALLAS,TX,DALLAS
75378,"DALLAS, TX",DALLAS,TX,DALLAS
75379,"DALLAS, TX",DALLAS,TX,DALLAS
75380,"DALLAS, TX",DALLAS,TX,DALLAS
75381,"DALLAS, TX",DALLAS,TX,DALLAS
75382,"DALLAS, TX",DALLAS,TX,DALLAS
75390,"DALLAS, TX",DALLAS,TX,DALLAS
75397,"DALLAS, TX",DALLAS,TX,DALLAS
77430,"DAMON, TX",DAMON,TX,BRAZORIA
77534,"DANBURY, TX",DANBURY,TX,BRAZORIA
77431,"DANCIGER, TX",DANCIGER,TX,BRAZORIA
77432,"DANEVANG, TX",DANEVANG,TX,WHARTON
79024,"DARROUZETT, TX",DARROUZETT,TX,LIPSCOMB
76523,"DAVILLA, TX",DAVILLA,TX,MILAM
79025,"DAWN, TX",DAWN,TX,DEAF SMITH
76639,"DAWSON, TX",DAWSON,TX,NAVARRO
77535,"DAYTON, TX",DAYTON,TX,LIBERTY
75639,"DE BERRY, TX",DE BERRY,TX,PANOLA
75559,"DE KALB, TX",DE KALB,TX,BOWIE
76444,"DE LEON, TX",DE LEON,TX,COMANCHE
77852,"DEANVILLE, TX",DEANVILLE,TX,BURLESON
76234,"DECATUR, TX",DECATUR,TX,WISE
77536,"DEER PARK, TX",DEER PARK,TX,HARRIS
78840,"DEL RIO, TX",DEL RIO,TX,VAL VERDE
78841,"DEL RIO, TX",DEL RIO,TX,VAL VERDE
78842,"DEL RIO, TX",DEL RIO,TX,VAL VERDE
78617,"DEL VALLE, TX",DEL VALLE,TX,TRAVIS
79837,"DELL CITY, TX",DELL CITY,TX,HUDSPETH
78536,"DELMITA, TX",DELMITA,TX,STARR
75020,"DENISON, TX",DENISON,TX,GRAYSON
75021,"DENISON, TX",DENISON,TX,GRAYSON
76439,"DENNIS, TX",DENNIS,TX,PARKER
76201,"DENTON, TX",DENTON,TX,DENTON
76202,"DENTON, TX",DENTON,TX,DENTON
76203,"DENTON, TX",DENTON,TX,DENTON
76204,"DENTON, TX",DENTON,TX,DENTON
76205,"DENTON, TX",DENTON,TX,DENTON
76206,"DENTON, TX",DENTON,TX,DENTON
76207,"DENTON, TX",DENTON,TX,DENTON
76208,"DENTON, TX",DENTON,TX,DENTON
76209,"DENTON, TX",DENTON,TX,DENTON
76210,"DENTON, TX",DENTON,TX,DENTON
79323,"DENVER CITY, TX",DENVER CITY,TX,YOAKUM
75435,"DEPORT, TX",DEPORT,TX,LAMAR
76445,"DESDEMONA, TX",DESDEMONA,TX,EASTLAND
75115,"DESOTO, TX",DESOTO,TX,DALLAS
75123,"DESOTO, TX",DESOTO,TX,DALLAS
75436,"DETROIT, TX",DETROIT,TX,RED RIVER
77538,"DEVERS, TX",DEVERS,TX,LIBERTY
78016,"DEVINE, TX",DEVINE,TX,MEDINA
77614,"DEWEYVILLE, TX",DEWEYVILLE,TX,NEWTON
75640,"DIANA, TX",DIANA,TX,UPSHUR
75941,"DIBOLL, TX",DIBOLL,TX,ANGELINA
79229,"DICKENS, TX",DICKENS,TX,DICKENS
77539,"DICKINSON, TX",DICKINSON,TX,GALVESTON
75437,"DIKE, TX",DIKE,TX,HOPKINS
78017,"DILLEY, TX",DILLEY,TX,FRIO
77853,"DIME BOX, TX",DIME BOX,TX,LEE
79027,"DIMMITT, TX",DIMMITT,TX,CASTRO
78350,"DINERO, TX",DINERO,TX,LIVE OAK
77333,"DOBBIN, TX",DOBBIN,TX,MONTGOMERY
75438,"DODD CITY, TX",DODD CITY,TX,FANNIN
77334,"DODGE, TX",DODGE,TX,WALKER
79230,"DODSON, TX",DODSON,TX,COLLINGSWORTH
75838,"DONIE, TX",DONIE,TX,FREESTONE
78537,"DONNA, TX",DONNA,TX,HIDALGO
78618,"DOSS, TX",DOSS,TX,GILLESPIE
75942,"DOUCETTE, TX",DOUCETTE,TX,TYLER
79231,"DOUGHERTY, TX",DOUGHERTY,TX,FLOYD
75943,"DOUGLASS, TX",DOUGLASS,TX,NACOGDOCHES
75560,"DOUGLASSVILLE, TX",DOUGLASSVILLE,TX,CASS
78619,"DRIFTWOOD, TX",DRIFTWOOD,TX,HAYS
78620,"DRIPPING SPRINGS, TX",DRIPPING SPRINGS,TX,HAYS
78351,"DRISCOLL, TX",DRISCOLL,TX,NUECES
78851,"DRYDEN, TX",DRYDEN,TX,TERRELL
76446,"DUBLIN, TX",DUBLIN,TX,ERATH
79029,"DUMAS, TX",DUMAS,TX,MOORE
75116,"DUNCANVILLE, TX",DUNCANVILLE,TX,DALLAS
75137,"DUNCANVILLE, TX",DUNCANVILLE,TX,DALLAS
75138,"DUNCANVILLE, TX",DUNCANVILLE,TX,DALLAS
79607,"DYESS AFB, TX",DYESS AFB,TX,TAYLOR
77434,"EAGLE LAKE, TX",EAGLE LAKE,TX,COLORADO
78852,"EAGLE PASS, TX",EAGLE PASS,TX,MAVERICK
78853,"EAGLE PASS, TX",EAGLE PASS,TX,MAVERICK
76802,"EARLY, TX",EARLY,TX,BROWN
76803,"EARLY, TX",EARLY,TX,BROWN
79031,"EARTH, TX",EARTH,TX,LAMB
77435,"EAST BERNARD, TX",EAST BERNARD,TX,WHARTON
76448,"EASTLAND, TX",EASTLAND,TX,EASTLAND
75641,"EASTON, TX",EASTON,TX,GREGG
78111,"ECLETO, TX",ECLETO,TX,KARNES
75439,"ECTOR, TX",ECTOR,TX,FANNIN
78538,"EDCOUCH, TX",EDCOUCH,TX,HIDALGO
76524,"EDDY, TX",EDDY,TX,MCLENNAN
76837,"EDEN, TX",EDEN,TX,CONCHO
75117,"EDGEWOOD, TX",EDGEWOOD,TX,VAN ZANDT
78539,"EDINBURG, TX",EDINBURG,TX,HIDALGO
78540,"EDINBURG, TX",EDINBURG,TX,HIDALGO
78541,"EDINBURG, TX",EDINBURG,TX,HIDALGO
78542,"EDINBURG, TX",EDINBURG,TX,HIDALGO
79032,"EDMONSON, TX",EDMONSON,TX,HALE
77957,"EDNA, TX",EDNA,TX,JACKSON
78352,"EDROY, TX",EDROY,TX,SAN PATRICIO
77436,"EGYPT, TX",EGYPT,TX,WHARTON
77437,"EL CAMPO, TX",EL CAMPO,TX,WHARTON
78860,"EL INDIO, TX",EL INDIO,TX,MAVERICK
79901,"EL PASO, TX",EL PASO,TX,EL PASO
79902,"EL PASO, TX",EL PASO,TX,EL PASO
79903,"EL PASO, TX",EL PASO,TX,EL PASO
79904,"EL PASO, TX",EL PASO,TX,EL PASO
79905,"EL PASO, TX",EL PASO,TX,EL PASO
79906,"EL PASO, TX",EL PASO,TX,EL PASO
79907,"EL PASO, TX",EL PASO,TX,EL PASO
79908,"EL PASO, TX",EL PASO,TX,EL PASO
79911,"EL PASO, TX",EL PASO,TX,EL PASO
79912,"EL PASO, TX",EL PASO,TX,EL PASO
79913,"EL PASO, TX",EL PASO,TX,EL PASO
79915,"EL PASO, TX",EL PASO,TX,EL PASO
79917,"EL PASO, TX",EL PASO,TX,EL PASO
79920,"EL PASO, TX",EL PASO,TX,EL PASO
79922,"EL PASO, TX",EL PASO,TX,EL PASO
79923,"EL PASO, TX",EL PASO,TX,EL PASO
79924,"EL PASO, TX",EL PASO,TX,EL PASO
79925,"EL PASO, TX",EL PASO,TX,EL PASO
79926,"EL PASO, TX",EL PASO,TX,EL PASO
79927,"EL PASO, TX",EL PASO,TX,EL PASO
79928,"EL PASO, TX",EL PASO,TX,EL PASO
79929,"EL PASO, TX",EL PASO,TX,EL PASO
79930,"EL PASO, TX",EL PASO,TX,EL PASO
79931,"EL PASO, TX",EL PASO,TX,EL PASO
79932,"EL PASO, TX",EL PASO,TX,EL PASO
79934,"EL PASO, TX",EL PASO,TX,EL PASO
79935,"EL PASO, TX",EL PASO,TX,EL PASO
79936,"EL PASO, TX",EL PASO,TX,EL PASO
79937,"EL PASO, TX",EL PASO,TX,EL PASO
79938,"EL PASO, TX",EL PASO,TX,EL PASO
79940,"EL PASO, TX",EL PASO,TX,EL PASO
79941,"EL PASO, TX",EL PASO,TX,EL PASO
79945,"EL PASO, TX",EL PASO,TX,EL PASO
79949,"EL PASO, TX",EL PASO,TX,EL PASO
79951,"EL PASO, TX",EL PASO,TX,EL PASO
79953,"EL PASO, TX",EL PASO,TX,EL PASO
79960,"EL PASO, TX",EL PASO,TX,EL PASO
79968,"EL PASO, TX",EL PASO,TX,EL PASO
79995,"EL PASO, TX",EL PASO,TX,EL PASO
79996,"EL PASO, TX",EL PASO,TX,EL PASO
79997,"EL PASO, TX",EL PASO,TX,EL PASO
79998,"EL PASO, TX",EL PASO,TX,EL PASO
88575,"EL PASO, TX",EL PASO,TX,EL PASO
76936,"ELDORADO, TX",ELDORADO,TX,SCHLEICHER
76360,"ELECTRA, TX",ELECTRA,TX,WICHITA
78621,"ELGIN, TX",ELGIN,TX,BASTROP
75839,"ELKHART, TX",ELKHART,TX,ANDERSON
78938,"ELLINGER, TX",ELLINGER,TX,FAYETTE
76640,"ELM MOTT, TX",ELM MOTT,TX,MCLENNAN
77440,"ELMATON, TX",ELMATON,TX,MATAGORDA
78112,"ELMENDORF, TX",ELMENDORF,TX,BEXAR
75118,"ELMO, TX",ELMO,TX,KAUFMAN
78543,"ELSA, TX",ELSA,TX,HIDALGO
75642,"ELYSIAN FIELDS, TX",ELYSIAN FIELDS,TX,HARRISON
75440,"EMORY, TX",EMORY,TX,RAINS
78019,"ENCINAL, TX",ENCINAL,TX,LA SALLE
78353,"ENCINO, TX",ENCINO,TX,BROOKS
76452,"ENERGY, TX",ENERGY,TX,COMANCHE
75441,"ENLOE, TX",ENLOE,TX,DELTA
75119,"ENNIS, TX",ENNIS,TX,ELLIS
75120,"ENNIS, TX",ENNIS,TX,ELLIS
76937,"EOLA, TX",EOLA,TX,CONCHO
76238,"ERA, TX",ERA,TX,COOKE
79233,"ESTELLINE, TX",ESTELLINE,TX,HALL
75944,"ETOILE, TX",ETOILE,TX,NACOGDOCHES
76039,"EULESS, TX",EULESS,TX,TARRANT
76040,"EULESS, TX",EULESS,TX,TARRANT
75124,"EUSTACE, TX",EUSTACE,TX,HENDERSON
77615,"EVADALE, TX",EVADALE,TX,JASPER
76525,"EVANT, TX",EVANT,TX,CORYELL
79838,"FABENS, TX",FABENS,TX,EL PASO
75840,"FAIRFIELD, TX",FAIRFIELD,TX,FREESTONE
78355,"FALFURRIAS, TX",FALFURRIAS,TX,BROOKS
78113,"FALLS CITY, TX",FALLS CITY,TX,KARNES
77960,"FANNIN, TX",FANNIN,TX,GOLIAD
75442,"FARMERSVILLE, TX",FARMERSVILLE,TX,COLLIN
79033,"FARNSWORTH, TX",FARNSWORTH,TX,OCHILTREE
79325,"FARWELL, TX",FARWELL,TX,PARMER
75132,"FATE, TX",FATE,TX,ROCKWALL
78940,"FAYETTEVILLE, TX",FAYETTEVILLE,TX,FAYETTE
78622,"FENTRESS, TX",FENTRESS,TX,CALDWELL
75125,"FERRIS, TX",FERRIS,TX,ELLIS
79326,"FIELDTON, TX",FIELDTON,TX,LAMB
78623,"FISCHER, TX",FISCHER,TX,COMAL
76526,"FLAT, TX",FLAT,TX,CORYELL
78941,"FLATONIA, TX",FLATONIA,TX,FAYETTE
75762,"FLINT, TX",FLINT,TX,SMITH
79234,"FLOMOT, TX",FLOMOT,TX,MOTLEY
76527,"FLORENCE, TX",FLORENCE,TX,WILLIAMSON
78114,"FLORESVILLE, TX",FLORESVILLE,TX,WILSON
75022,"FLOWER MOUND, TX",FLOWER MOUND,TX,DENTON
75027,"FLOWER MOUND, TX",FLOWER MOUND,TX,DENTON
75028,"FLOWER MOUND, TX",FLOWER MOUND,TX,DENTON
79235,"FLOYDADA, TX",FLOYDADA,TX,FLOYD
79517,"FLUVANNA, TX",FLUVANNA,TX,SCURRY
77855,"FLYNN, TX",FLYNN,TX,LEON
79034,"FOLLETT, TX",FOLLETT,TX,LIPSCOMB
76239,"FORESTBURG, TX",FORESTBURG,TX,MONTAGUE
75126,"FORNEY, TX",FORNEY,TX,KAUFMAN
76041,"FORRESTON, TX",FORRESTON,TX,ELLIS
79733,"FORSAN, TX",FORSAN,TX,HOWARD
79916,"FORT BLISS, TX",FORT BLISS,TX,EL PASO
79918,"FORT BLISS, TX",FORT BLISS,TX,EL PASO
79734,"FORT DAVIS, TX",FORT DAVIS,TX,JEFF DAVIS
79839,"FORT HANCOCK, TX",FORT HANCOCK,TX,HUDSPETH
76544,"FORT HOOD, TX",FORT HOOD,TX,BELL
79735,"FORT STOCKTON, TX",FORT STOCKTON,TX,PECOS
76101,"FORT WORTH, TX",FORT WORTH,TX,TARRANT
76102,"FORT WORTH, TX",FORT WORTH,TX,TARRANT
76103,"FORT WORTH, TX",FORT WORTH,TX,TARRANT
76104,"FORT WORTH, TX",FORT WORTH,TX,TARRANT
76105,"FORT WORTH, TX",FORT WORTH,TX,TARRANT
76106,"FORT WORTH, TX",FORT WORTH,TX,TARRANT
76107,"FORT WORTH, TX",FORT WORTH,TX,TARRANT
76108,"FORT WORTH, TX",FORT WORTH,TX,TARRANT
76109,"FORT WORTH, TX",FORT WORTH,TX,TARRANT
76110,"FORT WORTH, TX",FORT WORTH,TX,TARRANT
76111,"FORT WORTH, TX",FORT WORTH,TX,TARRANT
76112,"FORT WORTH, TX",FORT WORTH,TX,TARRANT
76113,"FORT WORTH, TX",FORT WORTH,TX,TARRANT
76114,"FORT WORTH, TX",FORT WORTH,TX,TARRANT
76115,"FORT WORTH, TX",FORT WORTH,TX,TARRANT
76116,"FORT WORTH, TX",FORT WORTH,TX,TARRANT
76118,"FORT WORTH, TX",FORT WORTH,TX,TARRANT
76119,"FORT WORTH, TX",FORT WORTH,TX,TARRANT
76120,"FORT WORTH, TX",FORT WORTH,TX,TARRANT
76121,"FORT WORTH, TX",FORT WORTH,TX,TARRANT
76122,"FORT WORTH, TX",FORT WORTH,TX,TARRANT
76123,"FORT WORTH, TX",FORT WORTH,TX,TARRANT
76124,"FORT WORTH, TX",FORT WORTH,TX,TARRANT
76126,"FORT WORTH, TX",FORT WORTH,TX,TARRANT
76129,"FORT WORTH, TX",FORT WORTH,TX,TARRANT
76131,"FORT WORTH, TX",FORT WORTH,TX,TARRANT
76132,"FORT WORTH, TX",FORT WORTH,TX,TARRANT
76133,"FORT WORTH, TX",FORT WORTH,TX,TARRANT
76134,"FORT WORTH, TX",FORT WORTH,TX,TARRANT
76135,"FORT WORTH, TX",FORT WORTH,TX,TARRANT
76136,"FORT WORTH, TX",FORT WORTH,TX,TARRANT
76137,"FORT WORTH, TX",FORT WORTH,TX,TARRANT
76140,"FORT WORTH, TX",FORT WORTH,TX,TARRANT
76147,"FORT WORTH, TX",FORT WORTH,TX,TARRANT
76148,"FORT WORTH, TX",FORT WORTH,TX,TARRANT
76155,"FORT WORTH, TX",FORT WORTH,TX,TARRANT
76161,"FORT WORTH, TX",FORT WORTH,TX,TARRANT
76162,"FORT WORTH, TX",FORT WORTH,TX,TARRANT
76163,"FORT WORTH, TX",FORT WORTH,TX,TARRANT
76164,"FORT WORTH, TX",FORT WORTH,TX,TARRANT
76166,"FORT WORTH, TX",FORT WORTH,TX,TARRANT
76177,"FORT WORTH, TX",FORT WORTH,TX,TARRANT
76179,"FORT WORTH, TX",FORT WORTH,TX,TARRANT
76181,"FORT WORTH, TX",FORT WORTH,TX,TARRANT
76185,"FORT WORTH, TX",FORT WORTH,TX,TARRANT
76192,"FORT WORTH, TX",FORT WORTH,TX,TARRANT
76196,"FORT WORTH, TX",FORT WORTH,TX,TARRANT
76199,"FORT WORTH, TX",FORT WORTH,TX,TARRANT
78021,"FOWLERTON, TX",FOWLERTON,TX,LA SALLE
77961,"FRANCITAS, TX",FRANCITAS,TX,JACKSON
77856,"FRANKLIN, TX",FRANKLIN,TX,ROBERTSON
75763,"FRANKSTON, TX",FRANKSTON,TX,ANDERSON
77616,"FRED, TX",FRED,TX,TYLER
78624,"FREDERICKSBURG, TX",FREDERICKSBURG,TX,GILLESPIE
76842,"FREDONIA, TX",FREDONIA,TX,MASON
77541,"FREEPORT, TX",FREEPORT,TX,BRAZORIA
77542,"FREEPORT, TX",FREEPORT,TX,BRAZORIA
78357,"FREER, TX",FREER,TX,DUVAL
77545,"FRESNO, TX",FRESNO,TX,FORT BEND
77546,"FRIENDSWOOD, TX",FRIENDSWOOD,TX,GALVESTON
77549,"FRIENDSWOOD, TX",FRIENDSWOOD,TX,GALVESTON
79035,"FRIONA, TX",FRIONA,TX,PARMER
75035,"FRISCO, TX",FRISCO,TX,COLLIN
75033,"FRISCO, TX",FRISCO,TX,DENTON
75034,"FRISCO, TX",FRISCO,TX,DENTON
79036,"FRITCH, TX",FRITCH,TX,HUTCHINSON
76641,"FROST, TX",FROST,TX,NAVARRO
75127,"FRUITVALE, TX",FRUITVALE,TX,VAN ZANDT
77441,"FULSHEAR, TX",FULSHEAR,TX,FORT BEND
78358,"FULTON, TX",FULTON,TX,ARANSAS
79738,"GAIL, TX",GAIL,TX,BORDEN
76240,"GAINESVILLE, TX",GAINESVILLE,TX,COOKE
76241,"GAINESVILLE, TX",GAINESVILLE,TX,COOKE
77547,"GALENA PARK, TX",GALENA PARK,TX,HARRIS
75764,"GALLATIN, TX",GALLATIN,TX,CHEROKEE
77550,"GALVESTON, TX",GALVESTON,TX,GALVESTON
77551,"GALVESTON, TX",GALVESTON,TX,GALVESTON
77552,"GALVESTON, TX",GALVESTON,TX,GALVESTON
77553,"GALVESTON, TX",GALVESTON,TX,GALVESTON
77554,"GALVESTON, TX",GALVESTON,TX,GALVESTON
77555,"GALVESTON, TX",GALVESTON,TX,GALVESTON
77962,"GANADO, TX",GANADO,TX,JACKSON
78547,"GARCIASVILLE, TX",GARCIASVILLE,TX,STARR
79739,"GARDEN CITY, TX",GARDEN CITY,TX,GLASSCOCK
79758,"GARDENDALE, TX",GARDENDALE,TX,ECTOR
75040,"GARLAND, TX",GARLAND,TX,DALLAS
75041,"GARLAND, TX",GARLAND,TX,DALLAS
75042,"GARLAND, TX",GARLAND,TX,DALLAS
75043,"GARLAND, TX",GARLAND,TX,DALLAS
75044,"GARLAND, TX",GARLAND,TX,DALLAS
75045,"GARLAND, TX",GARLAND,TX,DALLAS
75046,"GARLAND, TX",GARLAND,TX,DALLAS
75047,"GARLAND, TX",GARLAND,TX,DALLAS
75049,"GARLAND, TX",GARLAND,TX,DALLAS
75946,"GARRISON, TX",GARRISON,TX,NACOGDOCHES
77442,"GARWOOD, TX",GARWOOD,TX,COLORADO
75643,"GARY, TX",GARY,TX,PANOLA
76528,"GATESVILLE, TX",GATESVILLE,TX,CORYELL
76599,"GATESVILLE, TX",GATESVILLE,TX,CORYELL
77857,"GAUSE, TX",GAUSE,TX,MILAM
78022,"GEORGE WEST, TX",GEORGE WEST,TX,LIVE OAK
78626,"GEORGETOWN, TX",GEORGETOWN,TX,WILLIAMSON
78627,"GEORGETOWN, TX",GEORGETOWN,TX,WILLIAMSON
78628,"GEORGETOWN, TX",GEORGETOWN,TX,WILLIAMSON
78633,"GEORGETOWN, TX",GEORGETOWN,TX,WILLIAMSON
78115,"GERONIMO, TX",GERONIMO,TX,GUADALUPE
78942,"GIDDINGS, TX",GIDDINGS,TX,LEE
77617,"GILCHRIST, TX",GILCHRIST,TX,GALVESTON
78116,"GILLETT, TX",GILLETT,TX,KARNES
75644,"GILMER, TX",GILMER,TX,UPSHUR
75645,"GILMER, TX",GILMER,TX,UPSHUR
75647,"GLADEWATER, TX",GLADEWATER,TX,GREGG
77443,"GLEN FLORA, TX",GLEN FLORA,TX,WHARTON
76043,"GLEN ROSE, TX",GLEN ROSE,TX,SOMERVELL
78943,"GLIDDEN, TX",GLIDDEN,TX,COLORADO
75443,"GOBER, TX",GOBER,TX,FANNIN
76044,"GODLEY, TX",GODLEY,TX,JOHNSON
75444,"GOLDEN, TX",GOLDEN,TX,WOOD
79519,"GOLDSBORO, TX",GOLDSBORO,TX,COLEMAN
79741,"GOLDSMITH, TX",GOLDSMITH,TX,ECTOR
76844,"GOLDTHWAITE, TX",GOLDTHWAITE,TX,MILLS
77963,"GOLIAD, TX",GOLIAD,TX,GOLIAD
78629,"GONZALES, TX",GONZALES,TX,GONZALES
76908,"GOODFELLOW AFB, TX",GOODFELLOW AFB,TX,TOM GREEN
77335,"GOODRICH, TX",GOODRICH,TX,POLK
76453,"GORDON, TX",GORDON,TX,PALO PINTO
76245,"GORDONVILLE, TX",GORDONVILLE,TX,GRAYSON
76363,"GOREE, TX",GOREE,TX,KNOX
76454,"GORMAN, TX",GORMAN,TX,EASTLAND
76845,"GOULDBUSK, TX",GOULDBUSK,TX,COLEMAN
76449,"GRAFORD, TX",GRAFORD,TX,PALO PINTO
76450,"GRAHAM, TX",GRAHAM,TX,YOUNG
76048,"GRANBURY, TX",GRANBURY,TX,HOOD
76049,"GRANBURY, TX",GRANBURY,TX,HOOD
75050,"GRAND PRAIRIE, TX",GRAND PRAIRIE,TX,DALLAS
75051,"GRAND PRAIRIE, TX",GRAND PRAIRIE,TX,DALLAS
75052,"GRAND PRAIRIE, TX",GRAND PRAIRIE,TX,DALLAS
75053,"GRAND PRAIRIE, TX",GRAND PRAIRIE,TX,DALLAS
75054,"GRAND PRAIRIE, TX",GRAND PRAIRIE,TX,DALLAS
75140,"GRAND SALINE, TX",GRAND SALINE,TX,VAN ZANDT
79742,"GRANDFALLS, TX",GRANDFALLS,TX,WARD
76050,"GRANDVIEW, TX",GRANDVIEW,TX,JOHNSON
76530,"GRANGER, TX",GRANGER,TX,WILLIAMSON
75844,"GRAPELAND, TX",GRAPELAND,TX,HOUSTON
76051,"GRAPEVINE, TX",GRAPEVINE,TX,TARRANT
76099,"GRAPEVINE, TX",GRAPEVINE,TX,TARRANT
75401,"GREENVILLE, TX",GREENVILLE,TX,HUNT
75402,"GREENVILLE, TX",GREENVILLE,TX,HUNT
75403,"GREENVILLE, TX",GREENVILLE,TX,HUNT
75404,"GREENVILLE, TX",GREENVILLE,TX,HUNT
76246,"GREENWOOD, TX",GREENWOOD,TX,WISE
78359,"GREGORY, TX",GREGORY,TX,SAN PATRICIO
76642,"GROESBECK, TX",GROESBECK,TX,LIMESTONE
79039,"GROOM, TX",GROOM,TX,CARSON
77619,"GROVES, TX",GROVES,TX,JEFFERSON
75845,"GROVETON, TX",GROVETON,TX,TRINITY
78548,"GRULLA, TX",GRULLA,TX,STARR
79040,"GRUVER, TX",GRUVER,TX,HANSFORD
75058,"GUNTER, TX",GUNTER,TX,GRAYSON
76455,"GUSTINE, TX",GUSTINE,TX,COMANCHE
77444,"GUY, TX",GUY,TX,FORT BEND
79041,"HALE CENTER, TX",HALE CENTER,TX,HALE
77964,"HALLETTSVILLE, TX",HALLETTSVILLE,TX,LAVACA
75650,"HALLSVILLE, TX",HALLSVILLE,TX,HARRISON
76117,"HALTOM CITY, TX",HALTOM CITY,TX,TARRANT
76531,"HAMILTON, TX",HAMILTON,TX,HAMILTON
79520,"HAMLIN, TX",HAMLIN,TX,JONES
77622,"HAMSHIRE, TX",HAMSHIRE,TX,JEFFERSON
77560,"HANKAMER, TX",HANKAMER,TX,CHAMBERS
79042,"HAPPY, TX",HAPPY,TX,SWISHER
77561,"HARDIN, TX",HARDIN,TX,LIBERTY
78549,"HARGILL, TX",HARGILL,TX,HIDALGO
76548,"HARKER HEIGHTS, TX",HARKER HEIGHTS,TX,BELL
75651,"HARLETON, TX",HARLETON,TX,HARRISON
78550,"HARLINGEN, TX",HARLINGEN,TX,CAMERON
78551,"HARLINGEN, TX",HARLINGEN,TX,CAMERON
78552,"HARLINGEN, TX",HARLINGEN,TX,CAMERON
78553,"HARLINGEN, TX",HARLINGEN,TX,CAMERON
78631,"HARPER, TX",HARPER,TX,GILLESPIE
76364,"HARROLD, TX",HARROLD,TX,WILBARGER
79043,"HART, TX",HART,TX,CASTRO
79044,"HARTLEY, TX",HARTLEY,TX,HARTLEY
78632,"HARWOOD, TX",HARWOOD,TX,GONZALES
79521,"HASKELL, TX",HASKELL,TX,HASKELL
76052,"HASLET, TX",HASLET,TX,TARRANT
75765,"HAWKINS, TX",HAWKINS,TX,WOOD
79525,"HAWLEY, TX",HAWLEY,TX,JONES
77859,"HEARNE, TX",HEARNE,TX,ROBERTSON
78361,"HEBBRONVILLE, TX",HEBBRONVILLE,TX,JIM HOGG
79237,"HEDLEY, TX",HEDLEY,TX,DONLEY
76533,"HEIDENHEIMER, TX",HEIDENHEIMER,TX,BELL
78023,"HELOTES, TX",HELOTES,TX,BEXAR
75948,"HEMPHILL, TX",HEMPHILL,TX,SABINE
77445,"HEMPSTEAD, TX",HEMPSTEAD,TX,WALLER
75652,"HENDERSON, TX",HENDERSON,TX,RUSK
75653,"HENDERSON, TX",HENDERSON,TX,RUSK
75654,"HENDERSON, TX",HENDERSON,TX,RUSK
76365,"HENRIETTA, TX",HENRIETTA,TX,CLAY
79045,"HEREFORD, TX",HEREFORD,TX,DEAF SMITH
79526,"HERMLEIGH, TX",HERMLEIGH,TX,SCURRY
76643,"HEWITT, TX",HEWITT,TX,MCLENNAN
76457,"HICO, TX",HICO,TX,HAMILTON
78557,"HIDALGO, TX",HIDALGO,TX,HIDALGO
79046,"HIGGINS, TX",HIGGINS,TX,LIPSCOMB
77623,"HIGH ISLAND, TX",HIGH ISLAND,TX,GALVESTON
77562,"HIGHLANDS, TX",HIGHLANDS,TX,HARRIS
77624,"HILLISTER, TX",HILLISTER,TX,TYLER
76645,"HILLSBORO, TX",HILLSBORO,TX,HILL
77563,"HITCHCOCK, TX",HITCHCOCK,TX,GALVESTON
78117,"HOBSON, TX",HOBSON,TX,KARNES
77447,"HOCKLEY, TX",HOCKLEY,TX,HARRIS
76534,"HOLLAND, TX",HOLLAND,TX,BELL
76366,"HOLLIDAY, TX",HOLLIDAY,TX,ARCHER
78861,"HONDO, TX",HONDO,TX,MEDINA
75446,"HONEY GROVE, TX",HONEY GROVE,TX,FANNIN
75561,"HOOKS, TX",HOOKS,TX,BOWIE
78657,"HORSESHOE BAY, TX",HORSESHOE BAY,TX,LLANO
77053,"HOUSTON, TX",HOUSTON,TX,FORT BEND
77001,"HOUSTON, TX",HOUSTON,TX,HARRIS
77002,"HOUSTON, TX",HOUSTON,TX,HARRIS
77003,"HOUSTON, TX",HOUSTON,TX,HARRIS
77004,"HOUSTON, TX",HOUSTON,TX,HARRIS
77005,"HOUSTON, TX",HOUSTON,TX,HARRIS
77006,"HOUSTON, TX",HOUSTON,TX,HARRIS
77007,"HOUSTON, TX",HOUSTON,TX,HARRIS
77008,"HOUSTON, TX",HOUSTON,TX,HARRIS
77009,"HOUSTON, TX",HOUSTON,TX,HARRIS
77010,"HOUSTON, TX",HOUSTON,TX,HARRIS
77011,"HOUSTON, TX",HOUSTON,TX,HARRIS
77012,"HOUSTON, TX",HOUSTON,TX,HARRIS
77013,"HOUSTON, TX",HOUSTON,TX,HARRIS
77014,"HOUSTON, TX",HOUSTON,TX,HARRIS
77015,"HOUSTON, TX",HOUSTON,TX,HARRIS
77016,"HOUSTON, TX",HOUSTON,TX,HARRIS
77017,"HOUSTON, TX",HOUSTON,TX,HARRIS
77018,"HOUSTON, TX",HOUSTON,TX,HARRIS
77019,"HOUSTON, TX",HOUSTON,TX,HARRIS
77020,"HOUSTON, TX",HOUSTON,TX,HARRIS
77021,"HOUSTON, TX",HOUSTON,TX,HARRIS
77022,"HOUSTON, TX",HOUSTON,TX,HARRIS
77023,"HOUSTON, TX",HOUSTON,TX,HARRIS
77024,"HOUSTON, TX",HOUSTON,TX,HARRIS
77025,"HOUSTON, TX",HOUSTON,TX,HARRIS
77026,"HOUSTON, TX",HOUSTON,TX,HARRIS
77027,"HOUSTON, TX",HOUSTON,TX,HARRIS
77028,"HOUSTON, TX",HOUSTON,TX,HARRIS
77029,"HOUSTON, TX",HOUSTON,TX,HARRIS
77030,"HOUSTON, TX",HOUSTON,TX,HARRIS
77031,"HOUSTON, TX",HOUSTON,TX,HARRIS
77032,"HOUSTON, TX",HOUSTON,TX,HARRIS
77033,"HOUSTON, TX",HOUSTON,TX,HARRIS
77034,"HOUSTON, TX",HOUSTON,TX,HARRIS
77035,"HOUSTON, TX",HOUSTON,TX,HARRIS
77036,"HOUSTON, TX",HOUSTON,TX,HARRIS
77037,"HOUSTON, TX",HOUSTON,TX,HARRIS
77038,"HOUSTON, TX",HOUSTON,TX,HARRIS
77039,"HOUSTON, TX",HOUSTON,TX,HARRIS
77040,"HOUSTON, TX",HOUSTON,TX,HARRIS
77041,"HOUSTON, TX",HOUSTON,TX,HARRIS
77042,"HOUSTON, TX",HOUSTON,TX,HARRIS
77043,"HOUSTON, TX",HOUSTON,TX,HARRIS
77044,"HOUSTON, TX",HOUSTON,TX,HARRIS
77045,"HOUSTON, TX",HOUSTON,TX,HARRIS
77046,"HOUSTON, TX",HOUSTON,TX,HARRIS
77047,"HOUSTON, TX",HOUSTON,TX,HARRIS
77048,"HOUSTON, TX",HOUSTON,TX,HARRIS
77049,"HOUSTON, TX",HOUSTON,TX,HARRIS
77050,"HOUSTON, TX",HOUSTON,TX,HARRIS
77051,"HOUSTON, TX",HOUSTON,TX,HARRIS
77052,"HOUSTON, TX",HOUSTON,TX,HARRIS
77054,"HOUSTON, TX",HOUSTON,TX,HARRIS
77055,"HOUSTON, TX",HOUSTON,TX,HARRIS
77056,"HOUSTON, TX",HOUSTON,TX,HARRIS
77057,"HOUSTON, TX",HOUSTON,TX,HARRIS
77058,"HOUSTON, TX",HOUSTON,TX,HARRIS
77059,"HOUSTON, TX",HOUSTON,TX,HARRIS
77060,"HOUSTON, TX",HOUSTON,TX,HARRIS
77061,"HOUSTON, TX",HOUSTON,TX,HARRIS
77062,"HOUSTON, TX",HOUSTON,TX,HARRIS
77063,"HOUSTON, TX",HOUSTON,TX,HARRIS
77064,"HOUSTON, TX",HOUSTON,TX,HARRIS
77065,"HOUSTON, TX",HOUSTON,TX,HARRIS
77066,"HOUSTON, TX",HOUSTON,TX,HARRIS
77067,"HOUSTON, TX",HOUSTON,TX,HARRIS
77068,"HOUSTON, TX",HOUSTON,TX,HARRIS
77069,"HOUSTON, TX",HOUSTON,TX,HARRIS
77070,"HOUSTON, TX",HOUSTON,TX,HARRIS
77071,"HOUSTON, TX",HOUSTON,TX,HARRIS
77072,"HOUSTON, TX",HOUSTON,TX,HARRIS
77073,"HOUSTON, TX",HOUSTON,TX,HARRIS
77074,"HOUSTON, TX",HOUSTON,TX,HARRIS
77075,"HOUSTON, TX",HOUSTON,TX,HARRIS
77076,"HOUSTON, TX",HOUSTON,TX,HARRIS
77077,"HOUSTON, TX",HOUSTON,TX,HARRIS
77078,"HOUSTON, TX",HOUSTON,TX,HARRIS
77079,"HOUSTON, TX",HOUSTON,TX,HARRIS
77080,"HOUSTON, TX",HOUSTON,TX,HARRIS
77081,"HOUSTON, TX",HOUSTON,TX,HARRIS
77082,"HOUSTON, TX",HOUSTON,TX,HARRIS
77083,"HOUSTON, TX",HOUSTON,TX,HARRIS
77084,"HOUSTON, TX",HOUSTON,TX,HARRIS
77085,"HOUSTON, TX",HOUSTON,TX,HARRIS
77086,"HOUSTON, TX",HOUSTON,TX,HARRIS
77087,"HOUSTON, TX",HOUSTON,TX,HARRIS
77088,"HOUSTON, TX",HOUSTON,TX,HARRIS
77089,"HOUSTON, TX",HOUSTON,TX,HARRIS
77090,"HOUSTON, TX",HOUSTON,TX,HARRIS
77091,"HOUSTON, TX",HOUSTON,TX,HARRIS
77092,"HOUSTON, TX",HOUSTON,TX,HARRIS
77093,"HOUSTON, TX",HOUSTON,TX,HARRIS
77094,"HOUSTON, TX",HOUSTON,TX,HARRIS
77095,"HOUSTON, TX",HOUSTON,TX,HARRIS
77096,"HOUSTON, TX",HOUSTON,TX,HARRIS
77098,"HOUSTON, TX",HOUSTON,TX,HARRIS
77099,"HOUSTON, TX",HOUSTON,TX,HARRIS
77201,"HOUSTON, TX",HOUSTON,TX,HARRIS
77203,"HOUSTON, TX",HOUSTON,TX,HARRIS
77204,"HOUSTON, TX",HOUSTON,TX,HARRIS
77205,"HOUSTON, TX",HOUSTON,TX,HARRIS
77206,"HOUSTON, TX",HOUSTON,TX,HARRIS
77207,"HOUSTON, TX",HOUSTON,TX,HARRIS
77208,"HOUSTON, TX",HOUSTON,TX,HARRIS
77210,"HOUSTON, TX",HOUSTON,TX,HARRIS
77212,"HOUSTON, TX",HOUSTON,TX,HARRIS
77213,"HOUSTON, TX",HOUSTON,TX,HARRIS
77215,"HOUSTON, TX",HOUSTON,TX,HARRIS
77217,"HOUSTON, TX",HOUSTON,TX,HARRIS
77218,"HOUSTON, TX",HOUSTON,TX,HARRIS
77219,"HOUSTON, TX",HOUSTON,TX,HARRIS
77220,"HOUSTON, TX",HOUSTON,TX,HARRIS
77221,"HOUSTON, TX",HOUSTON,TX,HARRIS
77222,"HOUSTON, TX",HOUSTON,TX,HARRIS
77223,"HOUSTON, TX",HOUSTON,TX,HARRIS
77224,"HOUSTON, TX",HOUSTON,TX,HARRIS
77225,"HOUSTON, TX",HOUSTON,TX,HARRIS
77226,"HOUSTON, TX",HOUSTON,TX,HARRIS
77227,"HOUSTON, TX",HOUSTON,TX,HARRIS
77228,"HOUSTON, TX",HOUSTON,TX,HARRIS
77229,"HOUSTON, TX",HOUSTON,TX,HARRIS
77230,"HOUSTON, TX",HOUSTON,TX,HARRIS
77231,"HOUSTON, TX",HOUSTON,TX,HARRIS
77233,"HOUSTON, TX",HOUSTON,TX,HARRIS
77234,"HOUSTON, TX",HOUSTON,TX,HARRIS
77235,"HOUSTON, TX",HOUSTON,TX,HARRIS
77236,"HOUSTON, TX",HOUSTON,TX,HARRIS
77237,"HOUSTON, TX",HOUSTON,TX,HARRIS
77238,"HOUSTON, TX",HOUSTON,TX,HARRIS
77240,"HOUSTON, TX",HOUSTON,TX,HARRIS
77241,"HOUSTON, TX",HOUSTON,TX,HARRIS
77242,"HOUSTON, TX",HOUSTON,TX,HARRIS
77243,"HOUSTON, TX",HOUSTON,TX,HARRIS
77244,"HOUSTON, TX",HOUSTON,TX,HARRIS
77245,"HOUSTON, TX",HOUSTON,TX,HARRIS
77248,"HOUSTON, TX",HOUSTON,TX,HARRIS
77249,"HOUSTON, TX",HOUSTON,TX,HARRIS
77251,"HOUSTON, TX",HOUSTON,TX,HARRIS
77252,"HOUSTON, TX",HOUSTON,TX,HARRIS
77253,"HOUSTON, TX",HOUSTON,TX,HARRIS
77254,"HOUSTON, TX",HOUSTON,TX,HARRIS
77255,"HOUSTON, TX",HOUSTON,TX,HARRIS
77256,"HOUSTON, TX",HOUSTON,TX,HARRIS
77257,"HOUSTON, TX",HOUSTON,TX,HARRIS
77258,"HOUSTON, TX",HOUSTON,TX,HARRIS
77259,"HOUSTON, TX",HOUSTON,TX,HARRIS
77261,"HOUSTON, TX",HOUSTON,TX,HARRIS
77262,"HOUSTON, TX",HOUSTON,TX,HARRIS
77263,"HOUSTON, TX",HOUSTON,TX,HARRIS
77265,"HOUSTON, TX",HOUSTON,TX,HARRIS
77266,"HOUSTON, TX",HOUSTON,TX,HARRIS
77267,"HOUSTON, TX",HOUSTON,TX,HARRIS
77268,"HOUSTON, TX",HOUSTON,TX,HARRIS
77269,"HOUSTON, TX",HOUSTON,TX,HARRIS
77270,"HOUSTON, TX",HOUSTON,TX,HARRIS
77271,"HOUSTON, TX",HOUSTON,TX,HARRIS
77272,"HOUSTON, TX",HOUSTON,TX,HARRIS
77273,"HOUSTON, TX",HOUSTON,TX,HARRIS
77274,"HOUSTON, TX",HOUSTON,TX,HARRIS
77275,"HOUSTON, TX",HOUSTON,TX,HARRIS
77277,"HOUSTON, TX",HOUSTON,TX,HARRIS
77279,"HOUSTON, TX",HOUSTON,TX,HARRIS
77280,"HOUSTON, TX",HOUSTON,TX,HARRIS
77282,"HOUSTON, TX",HOUSTON,TX,HARRIS
77284,"HOUSTON, TX",HOUSTON,TX,HARRIS
77287,"HOUSTON, TX",HOUSTON,TX,HARRIS
77288,"HOUSTON, TX",HOUSTON,TX,HARRIS
77289,"HOUSTON, TX",HOUSTON,TX,HARRIS
77290,"HOUSTON, TX",HOUSTON,TX,HARRIS
77291,"HOUSTON, TX",HOUSTON,TX,HARRIS
77292,"HOUSTON, TX",HOUSTON,TX,HARRIS
77293,"HOUSTON, TX",HOUSTON,TX,HARRIS
75459,"HOWE, TX",HOWE,TX,GRAYSON
76648,"HUBBARD, TX",HUBBARD,TX,HILL
77336,"HUFFMAN, TX",HUFFMAN,TX,HARRIS
77337,"HUFSMITH, TX",HUFSMITH,TX,HARRIS
75656,"HUGHES SPRINGS, TX",HUGHES SPRINGS,TX,CASS
77564,"HULL, TX",HULL,TX,LIBERTY
77338,"HUMBLE, TX",HUMBLE,TX,HARRIS
77346,"HUMBLE, TX",HUMBLE,TX,HARRIS
77347,"HUMBLE, TX",HUMBLE,TX,HARRIS
77396,"HUMBLE, TX",HUMBLE,TX,HARRIS
77448,"HUNGERFORD, TX",HUNGERFORD,TX,WHARTON
78024,"HUNT, TX",HUNT,TX,KERR
75949,"HUNTINGTON, TX",HUNTINGTON,TX,ANGELINA
77320,"HUNTSVILLE, TX",HUNTSVILLE,TX,WALKER
77340,"HUNTSVILLE, TX",HUNTSVILLE,TX,WALKER
77341,"HUNTSVILLE, TX",HUNTSVILLE,TX,WALKER
77342,"HUNTSVILLE, TX",HUNTSVILLE,TX,WALKER
77344,"HUNTSVILLE, TX",HUNTSVILLE,TX,WALKER
77348,"HUNTSVILLE, TX",HUNTSVILLE,TX,WALKER
77349,"HUNTSVILLE, TX",HUNTSVILLE,TX,WALKER
76053,"HURST, TX",HURST,TX,TARRANT
76054,"HURST, TX",HURST,TX,TARRANT
75141,"HUTCHINS, TX",HUTCHINS,TX,DALLAS
78634,"HUTTO, TX",HUTTO,TX,WILLIAMSON
78635,"HYE, TX",HYE,TX,BLANCO
79329,"IDALOU, TX",IDALOU,TX,LUBBOCK
79743,"IMPERIAL, TX",IMPERIAL,TX,PECOS
78944,"INDUSTRY, TX",INDUSTRY,TX,AUSTIN
77968,"INEZ, TX",INEZ,TX,VICTORIA
78362,"INGLESIDE, TX",INGLESIDE,TX,SAN PATRICIO
78025,"INGRAM, TX",INGRAM,TX,KERR
77861,"IOLA, TX",IOLA,TX,GRIMES
76367,"IOWA PARK, TX",IOWA PARK,TX,WICHITA
79527,"IRA, TX",IRA,TX,SCURRY
79744,"IRAAN, TX",IRAAN,TX,PECOS
76649,"IREDELL, TX",IREDELL,TX,BOSQUE
76650,"IRENE, TX",IRENE,TX,HILL
75014,"IRVING, TX",IRVING,TX,DALLAS
75015,"IRVING, TX",IRVING,TX,DALLAS
75016,"IRVING, TX",IRVING,TX,DALLAS
75017,"IRVING, TX",IRVING,TX,DALLAS
75038,"IRVING, TX",IRVING,TX,DALLAS
75039,"IRVING, TX",IRVING,TX,DALLAS
75060,"IRVING, TX",IRVING,TX,DALLAS
75061,"IRVING, TX",IRVING,TX,DALLAS
75062,"IRVING, TX",IRVING,TX,DALLAS
75063,"IRVING, TX",IRVING,TX,DALLAS
76651,"ITALY, TX",ITALY,TX,ELLIS
76055,"ITASCA, TX",ITASCA,TX,HILL
75447,"IVANHOE, TX",IVANHOE,TX,FANNIN
76458,"JACKSBORO, TX",JACKSBORO,TX,JACK
75766,"JACKSONVILLE, TX",JACKSONVILLE,TX,CHEROKEE
76537,"JARRELL, TX",JARRELL,TX,WILLIAMSON
75951,"JASPER, TX",JASPER,TX,JASPER
79528,"JAYTON, TX",JAYTON,TX,KENT
78234,"JBSA FT SAM HOUSTON, TX",JBSA FT SAM HOUSTON,TX,BEXAR
78236,"JBSA LACKLAND, TX",JBSA LACKLAND,TX,BEXAR
78150,"JBSA RANDOLPH, TX",JBSA RANDOLPH,TX,BEXAR
75657,"JEFFERSON, TX",JEFFERSON,TX,MARION
76459,"JERMYN, TX",JERMYN,TX,JACK
75846,"JEWETT, TX",JEWETT,TX,LEON
75954,"JOAQUIN, TX",JOAQUIN,TX,SHELBY
78636,"JOHNSON CITY, TX",JOHNSON CITY,TX,BLANCO
76538,"JONESBORO, TX",JONESBORO,TX,CORYELL
75659,"JONESVILLE, TX",JONESVILLE,TX,HARRISON
75164,"JOSEPHINE, TX",JOSEPHINE,TX,COLLIN
76058,"JOSHUA, TX",JOSHUA,TX,JOHNSON
78026,"JOURDANTON, TX",JOURDANTON,TX,ATASCOSA
75660,"JUDSON, TX",JUDSON,TX,GREGG
76849,"JUNCTION, TX",JUNCTION,TX,KIMBLE
79330,"JUSTICEBURG, TX",JUSTICEBURG,TX,GARZA
76247,"JUSTIN, TX",JUSTIN,TX,DENTON
76369,"KAMAY, TX",KAMAY,TX,WICHITA
75661,"KARNACK, TX",KARNACK,TX,HARRISON
78118,"KARNES CITY, TX",KARNES CITY,TX,KARNES
77494,"KATY, TX",KATY,TX,FORT BEND
77449,"KATY, TX",KATY,TX,HARRIS
77450,"KATY, TX",KATY,TX,HARRIS
77491,"KATY, TX",KATY,TX,HARRIS
77492,"KATY, TX",KATY,TX,HARRIS
77493,"KATY, TX",KATY,TX,HARRIS
75142,"KAUFMAN, TX",KAUFMAN,TX,KAUFMAN
76059,"KEENE, TX",KEENE,TX,JOHNSON
76244,"KELLER, TX",KELLER,TX,TARRANT
76248,"KELLER, TX",KELLER,TX,TARRANT
77565,"KEMAH, TX",KEMAH,TX,GALVESTON
75143,"KEMP, TX",KEMP,TX,KAUFMAN
76539,"KEMPNER, TX",KEMPNER,TX,LAMPASAS
78027,"KENDALIA, TX",KENDALIA,TX,KENDALL
77451,"KENDLETON, TX",KENDLETON,TX,FORT BEND
78119,"KENEDY, TX",KENEDY,TX,KARNES
75847,"KENNARD, TX",KENNARD,TX,HOUSTON
76060,"KENNEDALE, TX",KENNEDALE,TX,TARRANT
77452,"KENNEY, TX",KENNEY,TX,AUSTIN
75144,"KERENS, TX",KERENS,TX,NAVARRO
79745,"KERMIT, TX",KERMIT,TX,WINKLER
79051,"KERRICK, TX",KERRICK,TX,DALLAM
78028,"KERRVILLE, TX",KERRVILLE,TX,KERR
78029,"KERRVILLE, TX",KERRVILLE,TX,KERR
75662,"KILGORE, TX",KILGORE,TX,GREGG
75663,"KILGORE, TX",KILGORE,TX,GREGG
76540,"KILLEEN, TX",KILLEEN,TX,BELL
76541,"KILLEEN, TX",KILLEEN,TX,BELL
76542,"KILLEEN, TX",KILLEEN,TX,BELL
76543,"KILLEEN, TX",KILLEEN,TX,BELL
76547,"KILLEEN, TX",KILLEEN,TX,BELL
76549,"KILLEEN, TX",KILLEEN,TX,BELL
78638,"KINGSBURY, TX",KINGSBURY,TX,GUADALUPE
78639,"KINGSLAND, TX",KINGSLAND,TX,LLANO
78363,"KINGSVILLE, TX",KINGSVILLE,TX,KLEBERG
78364,"KINGSVILLE, TX",KINGSVILLE,TX,KLEBERG
77325,"KINGWOOD, TX",KINGWOOD,TX,HARRIS
77339,"KINGWOOD, TX",KINGWOOD,TX,HARRIS
77345,"KINGWOOD, TX",KINGWOOD,TX,HARRIS
75956,"KIRBYVILLE, TX",KIRBYVILLE,TX,JASPER
75848,"KIRVIN, TX",KIRVIN,TX,FREESTONE
75448,"KLONDIKE, TX",KLONDIKE,TX,DELTA
78870,"KNIPPA, TX",KNIPPA,TX,UVALDE
79748,"KNOTT, TX",KNOTT,TX,HOWARD
79529,"KNOX CITY, TX",KNOX CITY,TX,KNOX
76652,"KOPPERL, TX",KOPPERL,TX,BOSQUE
76653,"KOSSE, TX",KOSSE,TX,LIMESTONE
77625,"KOUNTZE, TX",KOUNTZE,TX,HARDIN
79052,"KRESS, TX",KRESS,TX,SWISHER
76249,"KRUM, TX",KRUM,TX,DENTON
77862,"KURTEN, TX",KURTEN,TX,BRAZOS
78640,"KYLE, TX",KYLE,TX,HAYS
78558,"LA BLANCA, TX",LA BLANCA,TX,HIDALGO
78039,"LA COSTE, TX",LA COSTE,TX,MEDINA
78559,"LA FERIA, TX",LA FERIA,TX,CAMERON
78945,"LA GRANGE, TX",LA GRANGE,TX,FAYETTE
78560,"LA JOYA, TX",LA JOYA,TX,HIDALGO
77568,"LA MARQUE, TX",LA MARQUE,TX,GALVESTON
77571,"LA PORTE, TX",LA PORTE,TX,HARRIS
77572,"LA PORTE, TX",LA PORTE,TX,HARRIS
78872,"LA PRYOR, TX",LA PRYOR,TX,ZAVALA
78121,"LA VERNIA, TX",LA VERNIA,TX,WILSON
78562,"LA VILLA, TX",LA VILLA,TX,HIDALGO
77970,"LA WARD, TX",LA WARD,TX,JACKSON
75449,"LADONIA, TX",LADONIA,TX,FANNIN
76644,"LAGUNA PARK, TX",LAGUNA PARK,TX,BOSQUE
75666,"LAIRD HILL, TX",LAIRD HILL,TX,RUSK
75450,"LAKE CREEK, TX",LAKE CREEK,TX,DELTA
75065,"LAKE DALLAS, TX",LAKE DALLAS,TX,DENTON
77566,"LAKE JACKSON, TX",LAKE JACKSON,TX,BRAZORIA
79239,"LAKEVIEW, TX",LAKEVIEW,TX,HALL
79331,"LAMESA, TX",LAMESA,TX,DAWSON
76550,"LAMPASAS, TX",LAMPASAS,TX,LAMPASAS
75134,"LANCASTER, TX",LANCASTER,TX,DALLAS
75146,"LANCASTER, TX",LANCASTER,TX,DALLAS
77453,"LANE CITY, TX",LANE CITY,TX,WHARTON
75667,"LANEVILLE, TX",LANEVILLE,TX,RUSK
78040,"LAREDO, TX",LAREDO,TX,WEBB
78041,"LAREDO, TX",LAREDO,TX,WEBB
78042,"LAREDO, TX",LAREDO,TX,WEBB
78043,"LAREDO, TX",LAREDO,TX,WEBB
78044,"LAREDO, TX",LAREDO,TX,WEBB
78045,"LAREDO, TX",LAREDO,TX,WEBB
78046,"LAREDO, TX",LAREDO,TX,WEBB
78049,"LAREDO, TX",LAREDO,TX,WEBB
75770,"LARUE, TX",LARUE,TX,HENDERSON
78561,"LASARA, TX",LASARA,TX,WILLACY
75849,"LATEXO, TX",LATEXO,TX,HOUSTON
78843,"LAUGHLIN AFB, TX",LAUGHLIN AFB,TX,VAL VERDE
75166,"LAVON, TX",LAVON,TX,COLLIN
79530,"LAWN, TX",LAWN,TX,TAYLOR
79053,"LAZBUDDIE, TX",LAZBUDDIE,TX,PARMER
77573,"LEAGUE CITY, TX",LEAGUE CITY,TX,GALVESTON
77574,"LEAGUE CITY, TX",LEAGUE CITY,TX,GALVESTON
78873,"LEAKEY, TX",LEAKEY,TX,REAL
78645,"LEANDER, TX",LEANDER,TX,TRAVIS
78641,"LEANDER, TX",LEANDER,TX,WILLIAMSON
78646,"LEANDER, TX",LEANDER,TX,WILLIAMSON
78946,"LEDBETTER, TX",LEDBETTER,TX,FAYETTE
75451,"LEESBURG, TX",LEESBURG,TX,CAMP
78122,"LEESVILLE, TX",LEESVILLE,TX,GONZALES
79054,"LEFORS, TX",LEFORS,TX,GRAY
77350,"LEGGETT, TX",LEGGETT,TX,POLK
79240,"LELIA LAKE, TX",LELIA LAKE,TX,DONLEY
78050,"LEMING, TX",LEMING,TX,ATASCOSA
79749,"LENORAH, TX",LENORAH,TX,MARTIN
75850,"LEONA, TX",LEONA,TX,LEON
75452,"LEONARD, TX",LEONARD,TX,FANNIN
76654,"LEROY, TX",LEROY,TX,MCLENNAN
79336,"LEVELLAND, TX",LEVELLAND,TX,HOCKLEY
79338,"LEVELLAND, TX",LEVELLAND,TX,HOCKLEY
75029,"LEWISVILLE, TX",LEWISVILLE,TX,DENTON
75057,"LEWISVILLE, TX",LEWISVILLE,TX,DENTON
75067,"LEWISVILLE, TX",LEWISVILLE,TX,DENTON
75077,"LEWISVILLE, TX",LEWISVILLE,TX,DENTON
78947,"LEXINGTON, TX",LEXINGTON,TX,LEE
77575,"LIBERTY, TX",LIBERTY,TX,LIBERTY
78642,"LIBERTY HILL, TX",LIBERTY HILL,TX,WILLIAMSON
76061,"LILLIAN, TX",LILLIAN,TX,JOHNSON
78948,"LINCOLN, TX",LINCOLN,TX,LEE
75771,"LINDALE, TX",LINDALE,TX,SMITH
75563,"LINDEN, TX",LINDEN,TX,CASS
76250,"LINDSAY, TX",LINDSAY,TX,COOKE
76461,"LINGLEVILLE, TX",LINGLEVILLE,TX,ERATH
78563,"LINN, TX",LINN,TX,HIDALGO
76462,"LIPAN, TX",LIPAN,TX,HOOD
77454,"LISSIE, TX",LISSIE,TX,WHARTON
75068,"LITTLE ELM, TX",LITTLE ELM,TX,DENTON
76554,"LITTLE RIVER ACADEMY, TX",LITTLE RIVER ACADEMY,TX,BELL
79339,"LITTLEFIELD, TX",LITTLEFIELD,TX,LAMB
77577,"LIVERPOOL, TX",LIVERPOOL,TX,BRAZORIA
77351,"LIVINGSTON, TX",LIVINGSTON,TX,POLK
77399,"LIVINGSTON, TX",LIVINGSTON,TX,POLK
78643,"LLANO, TX",LLANO,TX,LLANO
78644,"LOCKHART, TX",LOCKHART,TX,CALDWELL
79241,"LOCKNEY, TX",LOCKNEY,TX,FLOYD
76852,"LOHN, TX",LOHN,TX,MCCULLOCH
77971,"LOLITA, TX",LOLITA,TX,JACKSON
76853,"LOMETA, TX",LOMETA,TX,LAMPASAS
76854,"LONDON, TX",LONDON,TX,KIMBLE
75453,"LONE OAK, TX",LONE OAK,TX,HUNT
75668,"LONE STAR, TX",LONE STAR,TX,MORRIS
75669,"LONG BRANCH, TX",LONG BRANCH,TX,PANOLA
75601,"LONGVIEW, TX",LONGVIEW,TX,GREGG
75602,"LONGVIEW, TX",LONGVIEW,TX,GREGG
75603,"LONGVIEW, TX",LONGVIEW,TX,GREGG
75604,"LONGVIEW, TX",LONGVIEW,TX,GREGG
75605,"LONGVIEW, TX",LONGVIEW,TX,GREGG
75606,"LONGVIEW, TX",LONGVIEW,TX,GREGG
75607,"LONGVIEW, TX",LONGVIEW,TX,GREGG
75608,"LONGVIEW, TX",LONGVIEW,TX,GREGG
75615,"LONGVIEW, TX",LONGVIEW,TX,GREGG
79342,"LOOP, TX",LOOP,TX,GAINES
79532,"LORAINE, TX",LORAINE,TX,MITCHELL
76655,"LORENA, TX",LORENA,TX,MCLENNAN
79343,"LORENZO, TX",LORENZO,TX,CROSBY
78565,"LOS EBANOS, TX",LOS EBANOS,TX,HIDALGO
78566,"LOS FRESNOS, TX",LOS FRESNOS,TX,CAMERON
78567,"LOS INDIOS, TX",LOS INDIOS,TX,CAMERON
76656,"LOTT, TX",LOTT,TX,FALLS
77455,"LOUISE, TX",LOUISE,TX,WHARTON
75851,"LOVELADY, TX",LOVELADY,TX,HOUSTON
76460,"LOVING, TX",LOVING,TX,YOUNG
76855,"LOWAKE, TX",LOWAKE,TX,CONCHO
78568,"LOZANO, TX",LOZANO,TX,CAMERON
79401,"LUBBOCK, TX",LUBBOCK,TX,LUBBOCK
79402,"LUBBOCK, TX",LUBBOCK,TX,LUBBOCK
79403,"LUBBOCK, TX",LUBBOCK,TX,LUBBOCK
79404,"LUBBOCK, TX",LUBBOCK,TX,LUBBOCK
79406,"LUBBOCK, TX",LUBBOCK,TX,LUBBOCK
79407,"LUBBOCK, TX",LUBBOCK,TX,LUBBOCK
79408,"LUBBOCK, TX",LUBBOCK,TX,LUBBOCK
79409,"LUBBOCK, TX",LUBBOCK,TX,LUBBOCK
79410,"LUBBOCK, TX",LUBBOCK,TX,LUBBOCK
79411,"LUBBOCK, TX",LUBBOCK,TX,LUBBOCK
79412,"LUBBOCK, TX",LUBBOCK,TX,LUBBOCK
79413,"LUBBOCK, TX",LUBBOCK,TX,LUBBOCK
79414,"LUBBOCK, TX",LUBBOCK,TX,LUBBOCK
79415,"LUBBOCK, TX",LUBBOCK,TX,LUBBOCK
79416,"LUBBOCK, TX",LUBBOCK,TX,LUBBOCK
79423,"LUBBOCK, TX",LUBBOCK,TX,LUBBOCK
79424,"LUBBOCK, TX",LUBBOCK,TX,LUBBOCK
79430,"LUBBOCK, TX",LUBBOCK,TX,LUBBOCK
79452,"LUBBOCK, TX",LUBBOCK,TX,LUBBOCK
79453,"LUBBOCK, TX",LUBBOCK,TX,LUBBOCK
79464,"LUBBOCK, TX",LUBBOCK,TX,LUBBOCK
79490,"LUBBOCK, TX",LUBBOCK,TX,LUBBOCK
79493,"LUBBOCK, TX",LUBBOCK,TX,LUBBOCK
79499,"LUBBOCK, TX",LUBBOCK,TX,LUBBOCK
79533,"LUEDERS, TX",LUEDERS,TX,JONES
75901,"LUFKIN, TX",LUFKIN,TX,ANGELINA
75902,"LUFKIN, TX",LUFKIN,TX,ANGELINA
75903,"LUFKIN, TX",LUFKIN,TX,ANGELINA
75904,"LUFKIN, TX",LUFKIN,TX,ANGELINA
75915,"LUFKIN, TX",LUFKIN,TX,ANGELINA
78648,"LULING, TX",LULING,TX,CALDWELL
77657,"LUMBERTON, TX",LUMBERTON,TX,HARDIN
78569,"LYFORD, TX",LYFORD,TX,WILLACY
77863,"LYONS, TX",LYONS,TX,BURLESON
78052,"LYTLE, TX",LYTLE,TX,ATASCOSA
75156,"MABANK, TX",MABANK,TX,HENDERSON
75147,"MABANK, TX",MABANK,TX,KAUFMAN
78054,"MACDONA, TX",MACDONA,TX,BEXAR
77864,"MADISONVILLE, TX",MADISONVILLE,TX,MADISON
77353,"MAGNOLIA, TX",MAGNOLIA,TX,MONTGOMERY
77354,"MAGNOLIA, TX",MAGNOLIA,TX,MONTGOMERY
77355,"MAGNOLIA, TX",MAGNOLIA,TX,MONTGOMERY
75148,"MALAKOFF, TX",MALAKOFF,TX,HENDERSON
76660,"MALONE, TX",MALONE,TX,HILL
78652,"MANCHACA, TX",MANCHACA,TX,TRAVIS
78653,"MANOR, TX",MANOR,TX,TRAVIS
76063,"MANSFIELD, TX",MANSFIELD,TX,TARRANT
77578,"MANVEL, TX",MANVEL,TX,BRAZORIA
79842,"MARATHON, TX",MARATHON,TX,BREWSTER
78654,"MARBLE FALLS, TX",MARBLE FALLS,TX,BURNET
79843,"MARFA, TX",MARFA,TX,PRESIDIO
75566,"MARIETTA, TX",MARIETTA,TX,CASS
78124,"MARION, TX",MARION,TX,GUADALUPE
77456,"MARKHAM, TX",MARKHAM,TX,MATAGORDA
76661,"MARLIN, TX",MARLIN,TX,FALLS
77865,"MARQUEZ, TX",MARQUEZ,TX,LEON
75670,"MARSHALL, TX",MARSHALL,TX,HARRISON
75671,"MARSHALL, TX",MARSHALL,TX,HARRISON
75672,"MARSHALL, TX",MARSHALL,TX,HARRISON
76664,"MART, TX",MART,TX,MCLENNAN
78655,"MARTINDALE, TX",MARTINDALE,TX,CALDWELL
75958,"MARTINSVILLE, TX",MARTINSVILLE,TX,NACOGDOCHES
79535,"MARYNEAL, TX",MARYNEAL,TX,NOLAN
76856,"MASON, TX",MASON,TX,MASON
79058,"MASTERSON, TX",MASTERSON,TX,MOORE
79244,"MATADOR, TX",MATADOR,TX,MOTLEY
77457,"MATAGORDA, TX",MATAGORDA,TX,MATAGORDA
78368,"MATHIS, TX",MATHIS,TX,SAN PATRICIO
75567,"MAUD, TX",MAUD,TX,BOWIE
77626,"MAURICEVILLE, TX",MAURICEVILLE,TX,ORANGE
78656,"MAXWELL, TX",MAXWELL,TX,CALDWELL
76857,"MAY, TX",MAY,TX,BROWN
75772,"MAYDELLE, TX",MAYDELLE,TX,CHEROKEE
76064,"MAYPEARL, TX",MAYPEARL,TX,ELLIS
79752,"MC CAMEY, TX",MC CAMEY,TX,UPTON
78650,"MC DADE, TX",MC DADE,TX,BASTROP
76657,"MC GREGOR, TX",MC GREGOR,TX,MCLENNAN
75565,"MC LEOD, TX",MC LEOD,TX,CASS
78123,"MC QUEENEY, TX",MC QUEENEY,TX,GUADALUPE
79243,"MCADOO, TX",MCADOO,TX,DICKENS
78501,"MCALLEN, TX",MCALLEN,TX,HIDALGO
78502,"MCALLEN, TX",MCALLEN,TX,HIDALGO
78503,"MCALLEN, TX",MCALLEN,TX,HIDALGO
78504,"MCALLEN, TX",MCALLEN,TX,HIDALGO
78505,"MCALLEN, TX",MCALLEN,TX,HIDALGO
75069,"MCKINNEY, TX",MCKINNEY,TX,COLLIN
75070,"MCKINNEY, TX",MCKINNEY,TX,COLLIN
75071,"MCKINNEY, TX",MCKINNEY,TX,COLLIN
79057,"MCLEAN, TX",MCLEAN,TX,GRAY
79345,"MEADOW, TX",MEADOW,TX,TERRY
78055,"MEDINA, TX",MEDINA,TX,BANDERA
76370,"MEGARGEL, TX",MEGARGEL,TX,ARCHER
75454,"MELISSA, TX",MELISSA,TX,COLLIN
76858,"MELVIN, TX",MELVIN,TX,MCCULLOCH
79245,"MEMPHIS, TX",MEMPHIS,TX,HALL
76859,"MENARD, TX",MENARD,TX,MENARD
79754,"MENTONE, TX",MENTONE,TX,LOVING
78570,"MERCEDES, TX",MERCEDES,TX,HIDALGO
76940,"MERETA, TX",MERETA,TX,TOM GREEN
76665,"MERIDIAN, TX",MERIDIAN,TX,BOSQUE
75458,"MERIT, TX",MERIT,TX,HUNT
79536,"MERKEL, TX",MERKEL,TX,TAYLOR
76666,"MERTENS, TX",MERTENS,TX,HILL
76941,"MERTZON, TX",MERTZON,TX,IRION
75149,"MESQUITE, TX",MESQUITE,TX,DALLAS
75150,"MESQUITE, TX",MESQUITE,TX,DALLAS
75181,"MESQUITE, TX",MESQUITE,TX,DALLAS
75185,"MESQUITE, TX",MESQUITE,TX,DALLAS
75187,"MESQUITE, TX",MESQUITE,TX,DALLAS
76667,"MEXIA, TX",MEXIA,TX,LIMESTONE
77974,"MEYERSVILLE, TX",MEYERSVILLE,TX,DE WITT
79059,"MIAMI, TX",MIAMI,TX,ROBERTS
78056,"MICO, TX",MICO,TX,MEDINA
77458,"MIDFIELD, TX",MIDFIELD,TX,MATAGORDA
79755,"MIDKIFF, TX",MIDKIFF,TX,UPTON
79701,"MIDLAND, TX",MIDLAND,TX,MIDLAND
79702,"MIDLAND, TX",MIDLAND,TX,MIDLAND
79703,"MIDLAND, TX",MIDLAND,TX,MIDLAND
79704,"MIDLAND, TX",MIDLAND,TX,MIDLAND
79705,"MIDLAND, TX",MIDLAND,TX,MIDLAND
79706,"MIDLAND, TX",MIDLAND,TX,MIDLAND
79707,"MIDLAND, TX",MIDLAND,TX,MIDLAND
79708,"MIDLAND, TX",MIDLAND,TX,MIDLAND
79710,"MIDLAND, TX",MIDLAND,TX,MIDLAND
79711,"MIDLAND, TX",MIDLAND,TX,MIDLAND
76065,"MIDLOTHIAN, TX",MIDLOTHIAN,TX,ELLIS
75852,"MIDWAY, TX",MIDWAY,TX,MADISON
75959,"MILAM, TX",MILAM,TX,SABINE
76556,"MILANO, TX",MILANO,TX,MILAM
76861,"MILES, TX",MILES,TX,RUNNELS
76670,"MILFORD, TX",MILFORD,TX,ELLIS
76862,"MILLERSVIEW, TX",MILLERSVIEW,TX,CONCHO
77866,"MILLICAN, TX",MILLICAN,TX,BRAZOS
76066,"MILLSAP, TX",MILLSAP,TX,PARKER
75680,"MINDEN, TX",MINDEN,TX,RUSK
75773,"MINEOLA, TX",MINEOLA,TX,WOOD
76067,"MINERAL WELLS, TX",MINERAL WELLS,TX,PALO PINTO
76068,"MINERAL WELLS, TX",MINERAL WELLS,TX,PALO PINTO
76463,"MINGUS, TX",MINGUS,TX,PALO PINTO
78369,"MIRANDO CITY, TX",MIRANDO CITY,TX,WEBB
78572,"MISSION, TX",MISSION,TX,HIDALGO
78573,"MISSION, TX",MISSION,TX,HIDALGO
78574,"MISSION, TX",MISSION,TX,HIDALGO
77459,"MISSOURI CITY, TX",MISSOURI CITY,TX,FORT BEND
77489,"MISSOURI CITY, TX",MISSOURI CITY,TX,FORT BEND
79061,"MOBEETIE, TX",MOBEETIE,TX,WHEELER
79756,"MONAHANS, TX",MONAHANS,TX,WARD
77580,"MONT BELVIEU, TX",MONT BELVIEU,TX,CHAMBERS
76251,"MONTAGUE, TX",MONTAGUE,TX,MONTAGUE
75853,"MONTALBA, TX",MONTALBA,TX,ANDERSON
77316,"MONTGOMERY, TX",MONTGOMERY,TX,MONTGOMERY
77356,"MONTGOMERY, TX",MONTGOMERY,TX,MONTGOMERY
76557,"MOODY, TX",MOODY,TX,MCLENNAN
78057,"MOORE, TX",MOORE,TX,FRIO
76464,"MORAN, TX",MORAN,TX,SHACKELFORD
76671,"MORGAN, TX",MORGAN,TX,BOSQUE
76465,"MORGAN MILL, TX",MORGAN MILL,TX,ERATH
79062,"MORSE, TX",MORSE,TX,HANSFORD
79346,"MORTON, TX",MORTON,TX,COCHRAN
75960,"MOSCOW, TX",MOSCOW,TX,POLK
77975,"MOULTON, TX",MOULTON,TX,LAVACA
76558,"MOUND, TX",MOUND,TX,CORYELL
76673,"MOUNT CALM, TX",MOUNT CALM,TX,HILL
75681,"MOUNT ENTERPRISE, TX",MOUNT ENTERPRISE,TX,RUSK
75455,"MOUNT PLEASANT, TX",MOUNT PLEASANT,TX,TITUS
75456,"MOUNT PLEASANT, TX",MOUNT PLEASANT,TX,TITUS
75457,"MOUNT VERNON, TX",MOUNT VERNON,TX,FRANKLIN
78058,"MOUNTAIN HOME, TX",MOUNTAIN HOME,TX,KERR
76252,"MUENSTER, TX",MUENSTER,TX,COOKE
78949,"MULDOON, TX",MULDOON,TX,FAYETTE
79347,"MULESHOE, TX",MULESHOE,TX,BAILEY
76864,"MULLIN, TX",MULLIN,TX,MILLS
77867,"MUMFORD, TX",MUMFORD,TX,ROBERTSON
76371,"MUNDAY, TX",MUNDAY,TX,KNOX
75778,"MURCHISON, TX",MURCHISON,TX,HENDERSON
76253,"MYRA, TX",MYRA,TX,COOKE
75961,"NACOGDOCHES, TX",NACOGDOCHES,TX,NACOGDOCHES
75962,"NACOGDOCHES, TX",NACOGDOCHES,TX,NACOGDOCHES
75963,"NACOGDOCHES, TX",NACOGDOCHES,TX,NACOGDOCHES
75964,"NACOGDOCHES, TX",NACOGDOCHES,TX,NACOGDOCHES
75965,"NACOGDOCHES, TX",NACOGDOCHES,TX,NACOGDOCHES
77460,"NADA, TX",NADA,TX,COLORADO
75568,"NAPLES, TX",NAPLES,TX,MORRIS
75569,"NASH, TX",NASH,TX,BOWIE
78059,"NATALIA, TX",NATALIA,TX,MEDINA
76127,"NAVAL AIR STATION JRB, TX",NAVAL AIR STATION JRB,TX,TARRANT
77868,"NAVASOTA, TX",NAVASOTA,TX,GRIMES
79063,"NAZARETH, TX",NAZARETH,TX,CASTRO
75779,"NECHES, TX",NECHES,TX,ANDERSON
77627,"NEDERLAND, TX",NEDERLAND,TX,JEFFERSON
77461,"NEEDVILLE, TX",NEEDVILLE,TX,FORT BEND
76070,"NEMO, TX",NEMO,TX,SOMERVELL
75173,"NEVADA, TX",NEVADA,TX,COLLIN
77870,"NEW BADEN, TX",NEW BADEN,TX,ROBERTSON
75570,"NEW BOSTON, TX",NEW BOSTON,TX,BOWIE
78130,"NEW BRAUNFELS, TX",NEW BRAUNFELS,TX,COMAL
78131,"NEW BRAUNFELS, TX",NEW BRAUNFELS,TX,COMAL
78132,"NEW BRAUNFELS, TX",NEW BRAUNFELS,TX,COMAL
78135,"NEW BRAUNFELS, TX",NEW BRAUNFELS,TX,COMAL
77357,"NEW CANEY, TX",NEW CANEY,TX,MONTGOMERY
79350,"NEW DEAL, TX",NEW DEAL,TX,LUBBOCK
79383,"NEW HOME, TX",NEW HOME,TX,LYNN
75682,"NEW LONDON, TX",NEW LONDON,TX,RUSK
75780,"NEW SUMMERFIELD, TX",NEW SUMMERFIELD,TX,CHEROKEE
78950,"NEW ULM, TX",NEW ULM,TX,AUSTIN
77358,"NEW WAVERLY, TX",NEW WAVERLY,TX,WALKER
76071,"NEWARK, TX",NEWARK,TX,WISE
76372,"NEWCASTLE, TX",NEWCASTLE,TX,YOUNG
75966,"NEWTON, TX",NEWTON,TX,NEWTON
78140,"NIXON, TX",NIXON,TX,GONZALES
76255,"NOCONA, TX",NOCONA,TX,MONTAGUE
76559,"NOLANVILLE, TX",NOLANVILLE,TX,BELL
77629,"NOME, TX",NOME,TX,JEFFERSON
78141,"NORDHEIM, TX",NORDHEIM,TX,DE WITT
77871,"NORMANGEE, TX",NORMANGEE,TX,LEON
78142,"NORMANNA, TX",NORMANNA,TX,BEE
76180,"NORTH RICHLAND HILLS, TX",NORTH RICHLAND HILLS,TX,TARRANT
76182,"NORTH RICHLAND HILLS, TX",NORTH RICHLAND HILLS,TX,TARRANT
77872,"NORTH ZULCH, TX",NORTH ZULCH,TX,MADISON
76865,"NORTON, TX",NORTON,TX,RUNNELS
79759,"NOTREES, TX",NOTREES,TX,ECTOR
79538,"NOVICE, TX",NOVICE,TX,COLEMAN
77976,"NURSERY, TX",NURSERY,TX,VICTORIA
79539,"O BRIEN, TX",O BRIEN,TX,HASKELL
77359,"OAKHURST, TX",OAKHURST,TX,SAN JACINTO
78951,"OAKLAND, TX",OAKLAND,TX,COLORADO
78060,"OAKVILLE, TX",OAKVILLE,TX,LIVE OAK
75855,"OAKWOOD, TX",OAKWOOD,TX,LEON
78370,"ODEM, TX",ODEM,TX,SAN PATRICIO
79760,"ODESSA, TX",ODESSA,TX,ECTOR
79761,"ODESSA, TX",ODESSA,TX,ECTOR
79762,"ODESSA, TX",ODESSA,TX,ECTOR
79763,"ODESSA, TX",ODESSA,TX,ECTOR
79764,"ODESSA, TX",ODESSA,TX,ECTOR
79765,"ODESSA, TX",ODESSA,TX,ECTOR
79766,"ODESSA, TX",ODESSA,TX,ECTOR
79768,"ODESSA, TX",ODESSA,TX,ECTOR
79769,"ODESSA, TX",ODESSA,TX,ECTOR
79351,"ODONNELL, TX",ODONNELL,TX,LYNN
76561,"OGLESBY, TX",OGLESBY,TX,CORYELL
78371,"OILTON, TX",OILTON,TX,WEBB
76373,"OKLAUNION, TX",OKLAUNION,TX,WILBARGER
79540,"OLD GLORY, TX",OLD GLORY,TX,STONEWALL
77463,"OLD OCEAN, TX",OLD OCEAN,TX,BRAZORIA
76466,"OLDEN, TX",OLDEN,TX,EASTLAND
78575,"OLMITO, TX",OLMITO,TX,CAMERON
76374,"OLNEY, TX",OLNEY,TX,YOUNG
79064,"OLTON, TX",OLTON,TX,LAMB
75571,"OMAHA, TX",OMAHA,TX,MORRIS
77360,"ONALASKA, TX",ONALASKA,TX,POLK
77630,"ORANGE, TX",ORANGE,TX,ORANGE
77631,"ORANGE, TX",ORANGE,TX,ORANGE
77632,"ORANGE, TX",ORANGE,TX,ORANGE
78372,"ORANGE GROVE, TX",ORANGE GROVE,TX,JIM WELLS
77639,"ORANGEFIELD, TX",ORANGEFIELD,TX,ORANGE
77464,"ORCHARD, TX",ORCHARD,TX,FORT BEND
75683,"ORE CITY, TX",ORE CITY,TX,UPSHUR
79770,"ORLA, TX",ORLA,TX,REEVES
79541,"OVALO, TX",OVALO,TX,TAYLOR
75684,"OVERTON, TX",OVERTON,TX,RUSK
76943,"OZONA, TX",OZONA,TX,CROCKETT
79248,"PADUCAH, TX",PADUCAH,TX,COTTLE
78659,"PAIGE, TX",PAIGE,TX,BASTROP
76866,"PAINT ROCK, TX",PAINT ROCK,TX,CONCHO
77465,"PALACIOS, TX",PALACIOS,TX,MATAGORDA
75801,"PALESTINE, TX",PALESTINE,TX,ANDERSON
75802,"PALESTINE, TX",PALESTINE,TX,ANDERSON
75803,"PALESTINE, TX",PALESTINE,TX,ANDERSON
75152,"PALMER, TX",PALMER,TX,ELLIS
76484,"PALO PINTO, TX",PALO PINTO,TX,PALO PINTO
79065,"PAMPA, TX",PAMPA,TX,GRAY
79066,"PAMPA, TX",PAMPA,TX,GRAY
78143,"PANDORA, TX",PANDORA,TX,WILSON
79068,"PANHANDLE, TX",PANHANDLE,TX,CARSON
78144,"PANNA MARIA, TX",PANNA MARIA,TX,KARNES
75685,"PANOLA, TX",PANOLA,TX,PANOLA
76073,"PARADISE, TX",PARADISE,TX,WISE
75460,"PARIS, TX",PARIS,TX,LAMAR
75461,"PARIS, TX",PARIS,TX,LAMAR
75462,"PARIS, TX",PARIS,TX,LAMAR
77501,"PASADENA, TX",PASADENA,TX,HARRIS
77502,"PASADENA, TX",PASADENA,TX,HARRIS
77503,"PASADENA, TX",PASADENA,TX,HARRIS
77504,"PASADENA, TX",PASADENA,TX,HARRIS
77505,"PASADENA, TX",PASADENA,TX,HARRIS
77506,"PASADENA, TX",PASADENA,TX,HARRIS
77507,"PASADENA, TX",PASADENA,TX,HARRIS
77508,"PASADENA, TX",PASADENA,TX,HARRIS
77466,"PATTISON, TX",PATTISON,TX,WALLER
75468,"PATTONVILLE, TX",PATTONVILLE,TX,LAMAR
78145,"PAWNEE, TX",PAWNEE,TX,BEE
77581,"PEARLAND, TX",PEARLAND,TX,BRAZORIA
77584,"PEARLAND, TX",PEARLAND,TX,BRAZORIA
77588,"PEARLAND, TX",PEARLAND,TX,BRAZORIA
78061,"PEARSALL, TX",PEARSALL,TX,FRIO
76485,"PEASTER, TX",PEASTER,TX,PARKER
75469,"PECAN GAP, TX",PECAN GAP,TX,DELTA
79772,"PECOS, TX",PECOS,TX,REEVES
78062,"PEGGY, TX",PEGGY,TX,ATASCOSA
76564,"PENDLETON, TX",PENDLETON,TX,BELL
76676,"PENELOPE, TX",PENELOPE,TX,HILL
78576,"PENITAS, TX",PENITAS,TX,HIDALGO
75856,"PENNINGTON, TX",PENNINGTON,TX,TRINITY
79776,"PENWELL, TX",PENWELL,TX,ECTOR
79353,"PEP, TX",PEP,TX,HOCKLEY
76486,"PERRIN, TX",PERRIN,TX,JACK
79070,"PERRYTON, TX",PERRYTON,TX,OCHILTREE
79250,"PETERSBURG, TX",PETERSBURG,TX,HALE
76377,"PETROLIA, TX",PETROLIA,TX,CLAY
78146,"PETTUS, TX",PETTUS,TX,BEE
75470,"PETTY, TX",PETTY,TX,LAMAR
78660,"PFLUGERVILLE, TX",PFLUGERVILLE,TX,TRAVIS
78691,"PFLUGERVILLE, TX",PFLUGERVILLE,TX,TRAVIS
78577,"PHARR, TX",PHARR,TX,HIDALGO
75471,"PICKTON, TX",PICKTON,TX,HOPKINS
77467,"PIERCE, TX",PIERCE,TX,WHARTON
76258,"PILOT POINT, TX",PILOT POINT,TX,DENTON
77362,"PINEHURST, TX",PINEHURST,TX,MONTGOMERY
75968,"PINELAND, TX",PINELAND,TX,SABINE
78063,"PIPE CREEK, TX",PIPE CREEK,TX,BANDERA
75686,"PITTSBURG, TX",PITTSBURG,TX,CAMP
77977,"PLACEDO, TX",PLACEDO,TX,VICTORIA
79355,"PLAINS, TX",PLAINS,TX,YOAKUM
79072,"PLAINVIEW, TX",PLAINVIEW,TX,HALE
79073,"PLAINVIEW, TX",PLAINVIEW,TX,HALE
75023,"PLANO, TX",PLANO,TX,COLLIN
75024,"PLANO, TX",PLANO,TX,COLLIN
75025,"PLANO, TX",PLANO,TX,COLLIN
75026,"PLANO, TX",PLANO,TX,COLLIN
75074,"PLANO, TX",PLANO,TX,COLLIN
75075,"PLANO, TX",PLANO,TX,COLLIN
75086,"PLANO, TX",PLANO,TX,COLLIN
75093,"PLANO, TX",PLANO,TX,COLLIN
75094,"PLANO, TX",PLANO,TX,COLLIN
77363,"PLANTERSVILLE, TX",PLANTERSVILLE,TX,GRIMES
78064,"PLEASANTON, TX",PLEASANTON,TX,ATASCOSA
77468,"PLEDGER, TX",PLEDGER,TX,MATAGORDA
78952,"PLUM, TX",PLUM,TX,FAYETTE
75472,"POINT, TX",POINT,TX,RAINS
77978,"POINT COMFORT, TX",POINT COMFORT,TX,CALHOUN
77364,"POINTBLANK, TX",POINTBLANK,TX,SAN JACINTO
75969,"POLLOK, TX",POLLOK,TX,ANGELINA
76259,"PONDER, TX",PONDER,TX,DENTON
76869,"PONTOTOC, TX",PONTOTOC,TX,MASON
76487,"POOLVILLE, TX",POOLVILLE,TX,PARKER
78373,"PORT ARANSAS, TX",PORT ARANSAS,TX,NUECES
77640,"PORT ARTHUR, TX",PORT ARTHUR,TX,JEFFERSON
77641,"PORT ARTHUR, TX",PORT ARTHUR,TX,JEFFERSON
77642,"PORT ARTHUR, TX",PORT ARTHUR,TX,JEFFERSON
77643,"PORT ARTHUR, TX",PORT ARTHUR,TX,JEFFERSON
77650,"PORT BOLIVAR, TX",PORT BOLIVAR,TX,GALVESTON
78578,"PORT ISABEL, TX",PORT ISABEL,TX,CAMERON
77979,"PORT LAVACA, TX",PORT LAVACA,TX,CALHOUN
78598,"PORT MANSFIELD, TX",PORT MANSFIELD,TX,WILLACY
77651,"PORT NECHES, TX",PORT NECHES,TX,JEFFERSON
77982,"PORT O CONNOR, TX",PORT O CONNOR,TX,CALHOUN
77365,"PORTER, TX",PORTER,TX,MONTGOMERY
78374,"PORTLAND, TX",PORTLAND,TX,SAN PATRICIO
79356,"POST, TX",POST,TX,GARZA
78065,"POTEET, TX",POTEET,TX,ATASCOSA
78147,"POTH, TX",POTH,TX,WILSON
75076,"POTTSBORO, TX",POTTSBORO,TX,GRAYSON
75473,"POWDERLY, TX",POWDERLY,TX,LAMAR
75153,"POWELL, TX",POWELL,TX,NAVARRO
75782,"POYNOR, TX",POYNOR,TX,HENDERSON
76678,"PRAIRIE HILL, TX",PRAIRIE HILL,TX,LIMESTONE
78661,"PRAIRIE LEA, TX",PRAIRIE LEA,TX,CALDWELL
77446,"PRAIRIE VIEW, TX",PRAIRIE VIEW,TX,WALLER
78375,"PREMONT, TX",PREMONT,TX,JIM WELLS
79845,"PRESIDIO, TX",PRESIDIO,TX,PRESIDIO
75687,"PRICE, TX",PRICE,TX,RUSK
76870,"PRIDDY, TX",PRIDDY,TX,MILLS
75407,"PRINCETON, TX",PRINCETON,TX,COLLIN
76468,"PROCTOR, TX",PROCTOR,TX,COMANCHE
78579,"PROGRESO, TX",PROGRESO,TX,HIDALGO
75078,"PROSPER, TX",PROSPER,TX,COLLIN
76679,"PURDON, TX",PURDON,TX,NAVARRO
76566,"PURMELA, TX",PURMELA,TX,CORYELL
76469,"PUTNAM, TX",PUTNAM,TX,CALLAHAN
79777,"PYOTE, TX",PYOTE,TX,WARD
79251,"QUAIL, TX",QUAIL,TX,COLLINGSWORTH
79252,"QUANAH, TX",QUANAH,TX,HARDEMAN
75572,"QUEEN CITY, TX",QUEEN CITY,TX,CASS
78877,"QUEMADO, TX",QUEMADO,TX,MAVERICK
75474,"QUINLAN, TX",QUINLAN,TX,HUNT
79255,"QUITAQUE, TX",QUITAQUE,TX,BRISCOE
75783,"QUITMAN, TX",QUITMAN,TX,WOOD
76077,"RAINBOW, TX",RAINBOW,TX,SOMERVELL
79357,"RALLS, TX",RALLS,TX,CROSBY
75475,"RANDOLPH, TX",RANDOLPH,TX,FANNIN
76470,"RANGER, TX",RANGER,TX,EASTLAND
79778,"RANKIN, TX",RANKIN,TX,UPTON
79366,"RANSOM CANYON, TX",RANSOM CANYON,TX,LUBBOCK
75858,"RATCLIFF, TX",RATCLIFF,TX,HOUSTON
75476,"RAVENNA, TX",RAVENNA,TX,FANNIN
78580,"RAYMONDVILLE, TX",RAYMONDVILLE,TX,WILLACY
77582,"RAYWOOD, TX",RAYWOOD,TX,LIBERTY
76680,"REAGAN, TX",REAGAN,TX,FALLS
78376,"REALITOS, TX",REALITOS,TX,DUVAL
75154,"RED OAK, TX",RED OAK,TX,ELLIS
78662,"RED ROCK, TX",RED ROCK,TX,BASTROP
75573,"REDWATER, TX",REDWATER,TX,BOWIE
78377,"REFUGIO, TX",REFUGIO,TX,REFUGIO
75784,"REKLAW, TX",REKLAW,TX,CHEROKEE
76078,"RHOME, TX",RHOME,TX,WISE
75155,"RICE, TX",RICE,TX,NAVARRO
77873,"RICHARDS, TX",RICHARDS,TX,GRIMES
75080,"RICHARDSON, TX",RICHARDSON,TX,DALLAS
75081,"RICHARDSON, TX",RICHARDSON,TX,DALLAS
75082,"RICHARDSON, TX",RICHARDSON,TX,DALLAS
75083,"RICHARDSON, TX",RICHARDSON,TX,DALLAS
75085,"RICHARDSON, TX",RICHARDSON,TX,DALLAS
76681,"RICHLAND, TX",RICHLAND,TX,NAVARRO
76871,"RICHLAND SPRINGS, TX",RICHLAND SPRINGS,TX,SAN SABA
77406,"RICHMOND, TX",RICHMOND,TX,FORT BEND
77407,"RICHMOND, TX",RICHMOND,TX,FORT BEND
77469,"RICHMOND, TX",RICHMOND,TX,FORT BEND
76682,"RIESEL, TX",RIESEL,TX,MCLENNAN
76261,"RINGGOLD, TX",RINGGOLD,TX,MONTAGUE
78879,"RIO FRIO, TX",RIO FRIO,TX,REAL
78582,"RIO GRANDE CITY, TX",RIO GRANDE CITY,TX,STARR
78583,"RIO HONDO, TX",RIO HONDO,TX,CAMERON
78066,"RIO MEDINA, TX",RIO MEDINA,TX,MEDINA
76093,"RIO VISTA, TX",RIO VISTA,TX,JOHNSON
76471,"RISING STAR, TX",RISING STAR,TX,EASTLAND
77367,"RIVERSIDE, TX",RIVERSIDE,TX,WALKER
78379,"RIVIERA, TX",RIVIERA,TX,KLEBERG
76262,"ROANOKE, TX",ROANOKE,TX,DENTON
77875,"ROANS PRAIRIE, TX",ROANS PRAIRIE,TX,GRIMES
79256,"ROARING SPRINGS, TX",ROARING SPRINGS,TX,MOTLEY
76945,"ROBERT LEE, TX",ROBERT LEE,TX,COKE
78380,"ROBSTOWN, TX",ROBSTOWN,TX,NUECES
79543,"ROBY, TX",ROBY,TX,FISHER
76872,"ROCHELLE, TX",ROCHELLE,TX,MCCULLOCH
79544,"ROCHESTER, TX",ROCHESTER,TX,HASKELL
77470,"ROCK ISLAND, TX",ROCK ISLAND,TX,COLORADO
76567,"ROCKDALE, TX",ROCKDALE,TX,MILAM
78381,"ROCKPORT, TX",ROCKPORT,TX,ARANSAS
78382,"ROCKPORT, TX",ROCKPORT,TX,ARANSAS
78880,"ROCKSPRINGS, TX",ROCKSPRINGS,TX,EDWARDS
75032,"ROCKWALL, TX",ROCKWALL,TX,ROCKWALL
75087,"ROCKWALL, TX",ROCKWALL,TX,ROCKWALL
76873,"ROCKWOOD, TX",ROCKWOOD,TX,COLEMAN
76569,"ROGERS, TX",ROGERS,TX,BELL
78584,"ROMA, TX",ROMA,TX,STARR
77368,"ROMAYOR, TX",ROMAYOR,TX,LIBERTY
79358,"ROPESVILLE, TX",ROPESVILLE,TX,HOCKLEY
78953,"ROSANKY, TX",ROSANKY,TX,BASTROP
79545,"ROSCOE, TX",ROSCOE,TX,NOLAN
76570,"ROSEBUD, TX",ROSEBUD,TX,FALLS
77471,"ROSENBERG, TX",ROSENBERG,TX,FORT BEND
77583,"ROSHARON, TX",ROSHARON,TX,BRAZORIA
76684,"ROSS, TX",ROSS,TX,MCLENNAN
75157,"ROSSER, TX",ROSSER,TX,KAUFMAN
76263,"ROSSTON, TX",ROSSTON,TX,COOKE
79546,"ROTAN, TX",ROTAN,TX,FISHER
78663,"ROUND MOUNTAIN, TX",ROUND MOUNTAIN,TX,BLANCO
78664,"ROUND ROCK, TX",ROUND ROCK,TX,WILLIAMSON
78665,"ROUND ROCK, TX",ROUND ROCK,TX,WILLIAMSON
78680,"ROUND ROCK, TX",ROUND ROCK,TX,WILLIAMSON
78681,"ROUND ROCK, TX",ROUND ROCK,TX,WILLIAMSON
78682,"ROUND ROCK, TX",ROUND ROCK,TX,WILLIAMSON
78683,"ROUND ROCK, TX",ROUND ROCK,TX,WILLIAMSON
78954,"ROUND TOP, TX",ROUND TOP,TX,FAYETTE
76875,"ROWENA, TX",ROWENA,TX,RUNNELS
75030,"ROWLETT, TX",ROWLETT,TX,DALLAS
75088,"ROWLETT, TX",ROWLETT,TX,DALLAS
75089,"ROWLETT, TX",ROWLETT,TX,DALLAS
75477,"ROXTON, TX",ROXTON,TX,LAMAR
75189,"ROYSE CITY, TX",ROYSE CITY,TX,ROCKWALL
79547,"RULE, TX",RULE,TX,HASKELL
79548,"RULE, TX",RULE,TX,HASKELL
78151,"RUNGE, TX",RUNGE,TX,KARNES
75785,"RUSK, TX",RUSK,TX,CHEROKEE
77369,"RYE, TX",RYE,TX,LIBERTY
78881,"SABINAL, TX",SABINAL,TX,UVALDE
77655,"SABINE PASS, TX",SABINE PASS,TX,JEFFERSON
75048,"SACHSE, TX",SACHSE,TX,DALLAS
76264,"SADLER, TX",SADLER,TX,GRAYSON
78152,"SAINT HEDWIG, TX",SAINT HEDWIG,TX,BEXAR
76265,"SAINT JO, TX",SAINT JO,TX,MONTAGUE
76571,"SALADO, TX",SALADO,TX,BELL
79847,"SALT FLAT, TX",SALT FLAT,TX,HUDSPETH
75478,"SALTILLO, TX",SALTILLO,TX,HOPKINS
76901,"SAN ANGELO, TX",SAN ANGELO,TX,TOM GREEN
76902,"SAN ANGELO, TX",SAN ANGELO,TX,TOM GREEN
76903,"SAN ANGELO, TX",SAN ANGELO,TX,TOM GREEN
76904,"SAN ANGELO, TX",SAN ANGELO,TX,TOM GREEN
76905,"SAN ANGELO, TX",SAN ANGELO,TX,TOM GREEN
76906,"SAN ANGELO, TX",SAN ANGELO,TX,TOM GREEN
76909,"SAN ANGELO, TX",SAN ANGELO,TX,TOM GREEN
78201,"SAN ANTONIO, TX",SAN ANTONIO,TX,BEXAR
78202,"SAN ANTONIO, TX",SAN ANTONIO,TX,BEXAR
78203,"SAN ANTONIO, TX",SAN ANTONIO,TX,BEXAR
78204,"SAN ANTONIO, TX",SAN ANTONIO,TX,BEXAR
78205,"SAN ANTONIO, TX",SAN ANTONIO,TX,BEXAR
78206,"SAN ANTONIO, TX",SAN ANTONIO,TX,BEXAR
78207,"SAN ANTONIO, TX",SAN ANTONIO,TX,BEXAR
78208,"SAN ANTONIO, TX",SAN ANTONIO,TX,BEXAR
78209,"SAN ANTONIO, TX",SAN ANTONIO,TX,BEXAR
78210,"SAN ANTONIO, TX",SAN ANTONIO,TX,BEXAR
78211,"SAN ANTONIO, TX",SAN ANTONIO,TX,BEXAR
78212,"SAN ANTONIO, TX",SAN ANTONIO,TX,BEXAR
78213,"SAN ANTONIO, TX",SAN ANTONIO,TX,BEXAR
78214,"SAN ANTONIO, TX",SAN ANTONIO,TX,BEXAR
78215,"SAN ANTONIO, TX",SAN ANTONIO,TX,BEXAR
78216,"SAN ANTONIO, TX",SAN ANTONIO,TX,BEXAR
78217,"SAN ANTONIO, TX",SAN ANTONIO,TX,BEXAR
78218,"SAN ANTONIO, TX",SAN ANTONIO,TX,BEXAR
78219,"SAN ANTONIO, TX",SAN ANTONIO,TX,BEXAR
78220,"SAN ANTONIO, TX",SAN ANTONIO,TX,BEXAR
78221,"SAN ANTONIO, TX",SAN ANTONIO,TX,BEXAR
78222,"SAN ANTONIO, TX",SAN ANTONIO,TX,BEXAR
78223,"SAN ANTONIO, TX",SAN ANTONIO,TX,BEXAR
78224,"SAN ANTONIO, TX",SAN ANTONIO,TX,BEXAR
78225,"SAN ANTONIO, TX",SAN ANTONIO,TX,BEXAR
78226,"SAN ANTONIO, TX",SAN ANTONIO,TX,BEXAR
78227,"SAN ANTONIO, TX",SAN ANTONIO,TX,BEXAR
78228,"SAN ANTONIO, TX",SAN ANTONIO,TX,BEXAR
78229,"SAN ANTONIO, TX",SAN ANTONIO,TX,BEXAR
78230,"SAN ANTONIO, TX",SAN ANTONIO,TX,BEXAR
78231,"SAN ANTONIO, TX",SAN ANTONIO,TX,BEXAR
78232,"SAN ANTONIO, TX",SAN ANTONIO,TX,BEXAR
78233,"SAN ANTONIO, TX",SAN ANTONIO,TX,BEXAR
78235,"SAN ANTONIO, TX",SAN ANTONIO,TX,BEXAR
78237,"SAN ANTONIO, TX",SAN ANTONIO,TX,BEXAR
78238,"SAN ANTONIO, TX",SAN ANTONIO,TX,BEXAR
78239,"SAN ANTONIO, TX",SAN ANTONIO,TX,BEXAR
78240,"SAN ANTONIO, TX",SAN ANTONIO,TX,BEXAR
78241,"SAN ANTONIO, TX",SAN ANTONIO,TX,BEXAR
78242,"SAN ANTONIO, TX",SAN ANTONIO,TX,BEXAR
78243,"SAN ANTONIO, TX",SAN ANTONIO,TX,BEXAR
78244,"SAN ANTONIO, TX",SAN ANTONIO,TX,BEXAR
78245,"SAN ANTONIO, TX",SAN ANTONIO,TX,BEXAR
78246,"SAN ANTONIO, TX",SAN ANTONIO,TX,BEXAR
78247,"SAN ANTONIO, TX",SAN ANTONIO,TX,BEXAR
78248,"SAN ANTONIO, TX",SAN ANTONIO,TX,BEXAR
78249,"SAN ANTONIO, TX",SAN ANTONIO,TX,BEXAR
78250,"SAN ANTONIO, TX",SAN ANTONIO,TX,BEXAR
78251,"SAN ANTONIO, TX",SAN ANTONIO,TX,BEXAR
78252,"SAN ANTONIO, TX",SAN ANTONIO,TX,BEXAR
78253,"SAN ANTONIO, TX",SAN ANTONIO,TX,BEXAR
78254,"SAN ANTONIO, TX",SAN ANTONIO,TX,BEXAR
78255,"SAN ANTONIO, TX",SAN ANTONIO,TX,BEXAR
78256,"SAN ANTONIO, TX",SAN ANTONIO,TX,BEXAR
78257,"SAN ANTONIO, TX",SAN ANTONIO,TX,BEXAR
78258,"SAN ANTONIO, TX",SAN ANTONIO,TX,BEXAR
78259,"SAN ANTONIO, TX",SAN ANTONIO,TX,BEXAR
78260,"SAN ANTONIO, TX",SAN ANTONIO,TX,BEXAR
78261,"SAN ANTONIO, TX",SAN ANTONIO,TX,BEXAR
78263,"SAN ANTONIO, TX",SAN ANTONIO,TX,BEXAR
78264,"SAN ANTONIO, TX",SAN ANTONIO,TX,BEXAR
78265,"SAN ANTONIO, TX",SAN ANTONIO,TX,BEXAR
78268,"SAN ANTONIO, TX",SAN ANTONIO,TX,BEXAR
78269,"SAN ANTONIO, TX",SAN ANTONIO,TX,BEXAR
78270,"SAN ANTONIO, TX",SAN ANTONIO,TX,BEXAR
78278,"SAN ANTONIO, TX",SAN ANTONIO,TX,BEXAR
78279,"SAN ANTONIO, TX",SAN ANTONIO,TX,BEXAR
78280,"SAN ANTONIO, TX",SAN ANTONIO,TX,BEXAR
78283,"SAN ANTONIO, TX",SAN ANTONIO,TX,BEXAR
78284,"SAN ANTONIO, TX",SAN ANTONIO,TX,BEXAR
78288,"SAN ANTONIO, TX",SAN ANTONIO,TX,BEXAR
78289,"SAN ANTONIO, TX",SAN ANTONIO,TX,BEXAR
78291,"SAN ANTONIO, TX",SAN ANTONIO,TX,BEXAR
78294,"SAN ANTONIO, TX",SAN ANTONIO,TX,BEXAR
78295,"SAN ANTONIO, TX",SAN ANTONIO,TX,BEXAR
78296,"SAN ANTONIO, TX",SAN ANTONIO,TX,BEXAR
78297,"SAN ANTONIO, TX",SAN ANTONIO,TX,BEXAR
78299,"SAN ANTONIO, TX",SAN ANTONIO,TX,BEXAR
78266,"SAN ANTONIO, TX",SAN ANTONIO,TX,COMAL
75972,"SAN AUGUSTINE, TX",SAN AUGUSTINE,TX,SAN AUGUSTINE
78586,"SAN BENITO, TX",SAN BENITO,TX,CAMERON
78384,"SAN DIEGO, TX",SAN DIEGO,TX,DUVAL
79849,"SAN ELIZARIO, TX",SAN ELIZARIO,TX,EL PASO
77473,"SAN FELIPE, TX",SAN FELIPE,TX,AUSTIN
78588,"SAN ISIDRO, TX",SAN ISIDRO,TX,STARR
78589,"SAN JUAN, TX",SAN JUAN,TX,HIDALGO
78666,"SAN MARCOS, TX",SAN MARCOS,TX,HAYS
78667,"SAN MARCOS, TX",SAN MARCOS,TX,HAYS
78590,"SAN PERLITA, TX",SAN PERLITA,TX,WILLACY
76877,"SAN SABA, TX",SAN SABA,TX,SAN SABA
78067,"SAN YGNACIO, TX",SAN YGNACIO,TX,ZAPATA
79848,"SANDERSON, TX",SANDERSON,TX,TERRELL
78383,"SANDIA, TX",SANDIA,TX,JIM WELLS
79078,"SANFORD, TX",SANFORD,TX,HUTCHINSON
76266,"SANGER, TX",SANGER,TX,DENTON
76878,"SANTA ANNA, TX",SANTA ANNA,TX,COLEMAN
78591,"SANTA ELENA, TX",SANTA ELENA,TX,STARR
77510,"SANTA FE, TX",SANTA FE,TX,GALVESTON
77517,"SANTA FE, TX",SANTA FE,TX,GALVESTON
78592,"SANTA MARIA, TX",SANTA MARIA,TX,CAMERON
78593,"SANTA ROSA, TX",SANTA ROSA,TX,CAMERON
76472,"SANTO, TX",SANTO,TX,PALO PINTO
79780,"SARAGOSA, TX",SARAGOSA,TX,REEVES
77585,"SARATOGA, TX",SARATOGA,TX,HARDIN
78385,"SARITA, TX",SARITA,TX,KENEDY
76685,"SATIN, TX",SATIN,TX,FALLS
75479,"SAVOY, TX",SAVOY,TX,FANNIN
78154,"SCHERTZ, TX",SCHERTZ,TX,GUADALUPE
78956,"SCHULENBURG, TX",SCHULENBURG,TX,FAYETTE
76573,"SCHWERTNER, TX",SCHWERTNER,TX,WILLIAMSON
76379,"SCOTLAND, TX",SCOTLAND,TX,ARCHER
75688,"SCOTTSVILLE, TX",SCOTTSVILLE,TX,HARRISON
75480,"SCROGGINS, TX",SCROGGINS,TX,FRANKLIN
75158,"SCURRY, TX",SCURRY,TX,KAUFMAN
77586,"SEABROOK, TX",SEABROOK,TX,HARRIS
77983,"SEADRIFT, TX",SEADRIFT,TX,CALHOUN
75159,"SEAGOVILLE, TX",SEAGOVILLE,TX,DALLAS
79359,"SEAGRAVES, TX",SEAGRAVES,TX,GAINES
77474,"SEALY, TX",SEALY,TX,AUSTIN
78594,"SEBASTIAN, TX",SEBASTIAN,TX,WILLACY
78155,"SEGUIN, TX",SEGUIN,TX,GUADALUPE
78156,"SEGUIN, TX",SEGUIN,TX,GUADALUPE
75689,"SELMAN CITY, TX",SELMAN CITY,TX,RUSK
79360,"SEMINOLE, TX",SEMINOLE,TX,GAINES
76380,"SEYMOUR, TX",SEYMOUR,TX,BAYLOR
79363,"SHALLOWATER, TX",SHALLOWATER,TX,LUBBOCK
79079,"SHAMROCK, TX",SHAMROCK,TX,WHEELER
79781,"SHEFFIELD, TX",SHEFFIELD,TX,PECOS
75973,"SHELBYVILLE, TX",SHELBYVILLE,TX,SHELBY
77371,"SHEPHERD, TX",SHEPHERD,TX,SAN JACINTO
76311,"SHEPPARD AFB, TX",SHEPPARD AFB,TX,WICHITA
77475,"SHERIDAN, TX",SHERIDAN,TX,COLORADO
75090,"SHERMAN, TX",SHERMAN,TX,GRAYSON
75091,"SHERMAN, TX",SHERMAN,TX,GRAYSON
75092,"SHERMAN, TX",SHERMAN,TX,GRAYSON
77984,"SHINER, TX",SHINER,TX,LAVACA
77876,"SHIRO, TX",SHIRO,TX,GRIMES
76474,"SIDNEY, TX",SIDNEY,TX,COMANCHE
79851,"SIERRA BLANCA, TX",SIERRA BLANCA,TX,HUDSPETH
77656,"SILSBEE, TX",SILSBEE,TX,HARDIN
76949,"SILVER, TX",SILVER,TX,COKE
79257,"SILVERTON, TX",SILVERTON,TX,BRISCOE
75574,"SIMMS, TX",SIMMS,TX,BOWIE
77476,"SIMONTON, TX",SIMONTON,TX,FORT BEND
78387,"SINTON, TX",SINTON,TX,SAN PATRICIO
79080,"SKELLYTOWN, TX",SKELLYTOWN,TX,CARSON
78389,"SKIDMORE, TX",SKIDMORE,TX,BEE
79364,"SLATON, TX",SLATON,TX,LUBBOCK
76267,"SLIDELL, TX",SLIDELL,TX,WISE
78159,"SMILEY, TX",SMILEY,TX,GONZALES
78957,"SMITHVILLE, TX",SMITHVILLE,TX,BASTROP
79367,"SMYER, TX",SMYER,TX,HOCKLEY
77878,"SNOOK, TX",SNOOK,TX,BURLESON
79549,"SNYDER, TX",SNYDER,TX,SCURRY
79550,"SNYDER, TX",SNYDER,TX,SCURRY
78069,"SOMERSET, TX",SOMERSET,TX,BEXAR
77879,"SOMERVILLE, TX",SOMERVILLE,TX,BURLESON
76950,"SONORA, TX",SONORA,TX,SUTTON
77659,"SOUR LAKE, TX",SOUR LAKE,TX,HARDIN
76481,"SOUTH BEND, TX",SOUTH BEND,TX,YOUNG
77587,"SOUTH HOUSTON, TX",SOUTH HOUSTON,TX,HARRIS
78597,"SOUTH PADRE ISLAND, TX",SOUTH PADRE ISLAND,TX,CAMERON
76092,"SOUTHLAKE, TX",SOUTHLAKE,TX,TARRANT
76268,"SOUTHMAYD, TX",SOUTHMAYD,TX,GRAYSON
79369,"SPADE, TX",SPADE,TX,LAMB
79081,"SPEARMAN, TX",SPEARMAN,TX,HANSFORD
78669,"SPICEWOOD, TX",SPICEWOOD,TX,TRAVIS
77372,"SPLENDORA, TX",SPLENDORA,TX,MONTGOMERY
77373,"SPRING, TX",SPRING,TX,HARRIS
77379,"SPRING, TX",SPRING,TX,HARRIS
77383,"SPRING, TX",SPRING,TX,HARRIS
77388,"SPRING, TX",SPRING,TX,HARRIS
77389,"SPRING, TX",SPRING,TX,HARRIS
77391,"SPRING, TX",SPRING,TX,HARRIS
77380,"SPRING, TX",SPRING,TX,MONTGOMERY
77381,"SPRING, TX",SPRING,TX,MONTGOMERY
77382,"SPRING, TX",SPRING,TX,MONTGOMERY
77386,"SPRING, TX",SPRING,TX,MONTGOMERY
77387,"SPRING, TX",SPRING,TX,MONTGOMERY
77393,"SPRING, TX",SPRING,TX,MONTGOMERY
78070,"SPRING BRANCH, TX",SPRING BRANCH,TX,COMAL
79082,"SPRINGLAKE, TX",SPRINGLAKE,TX,LAMB
76082,"SPRINGTOWN, TX",SPRINGTOWN,TX,PARKER
79370,"SPUR, TX",SPUR,TX,DICKENS
77660,"SPURGER, TX",SPURGER,TX,TYLER
77477,"STAFFORD, TX",STAFFORD,TX,FORT BEND
77497,"STAFFORD, TX",STAFFORD,TX,FORT BEND
79553,"STAMFORD, TX",STAMFORD,TX,JONES
79782,"STANTON, TX",STANTON,TX,MARTIN
78670,"STAPLES, TX",STAPLES,TX,GUADALUPE
76880,"STAR, TX",STAR,TX,MILLS
76401,"STEPHENVILLE, TX",STEPHENVILLE,TX,ERATH
76402,"STEPHENVILLE, TX",STEPHENVILLE,TX,ERATH
76951,"STERLING CITY, TX",STERLING CITY,TX,STERLING
79083,"STINNETT, TX",STINNETT,TX,HUTCHINSON
78160,"STOCKDALE, TX",STOCKDALE,TX,WILSON
78671,"STONEWALL, TX",STONEWALL,TX,GILLESPIE
77661,"STOWELL, TX",STOWELL,TX,CHAMBERS
79084,"STRATFORD, TX",STRATFORD,TX,SHERMAN
76475,"STRAWN, TX",STRAWN,TX,PALO PINTO
75859,"STREETMAN, TX",STREETMAN,TX,FREESTONE
77986,"SUBLIME, TX",SUBLIME,TX,LAVACA
79371,"SUDAN, TX",SUDAN,TX,LAMB
77478,"SUGAR LAND, TX",SUGAR LAND,TX,FORT BEND
77479,"SUGAR LAND, TX",SUGAR LAND,TX,FORT BEND
77487,"SUGAR LAND, TX",SUGAR LAND,TX,FORT BEND
77496,"SUGAR LAND, TX",SUGAR LAND,TX,FORT BEND
77498,"SUGAR LAND, TX",SUGAR LAND,TX,FORT BEND
78595,"SULLIVAN CITY, TX",SULLIVAN CITY,TX,HIDALGO
75481,"SULPHUR BLUFF, TX",SULPHUR BLUFF,TX,HOPKINS
75482,"SULPHUR SPRINGS, TX",SULPHUR SPRINGS,TX,HOPKINS
75483,"SULPHUR SPRINGS, TX",SULPHUR SPRINGS,TX,HOPKINS
79085,"SUMMERFIELD, TX",SUMMERFIELD,TX,CASTRO
75486,"SUMNER, TX",SUMNER,TX,LAMAR
79372,"SUNDOWN, TX",SUNDOWN,TX,HOCKLEY
75182,"SUNNYVALE, TX",SUNNYVALE,TX,DALLAS
79086,"SUNRAY, TX",SUNRAY,TX,MOORE
76270,"SUNSET, TX",SUNSET,TX,MONTAGUE
78161,"SUTHERLAND SPRINGS, TX",SUTHERLAND SPRINGS,TX,WILSON
77480,"SWEENY, TX",SWEENY,TX,BRAZORIA
77987,"SWEET HOME, TX",SWEET HOME,TX,LAVACA
79556,"SWEETWATER, TX",SWEETWATER,TX,NOLAN
79560,"SYLVESTER, TX",SYLVESTER,TX,FISHER
78390,"TAFT, TX",TAFT,TX,SAN PATRICIO
79373,"TAHOKA, TX",TAHOKA,TX,LYNN
75487,"TALCO, TX",TALCO,TX,FRANKLIN
76882,"TALPA, TX",TALPA,TX,COLEMAN
78883,"TARPLEY, TX",TARPLEY,TX,BANDERA
79783,"TARZAN, TX",TARZAN,TX,MARTIN
75691,"TATUM, TX",TATUM,TX,RUSK
76574,"TAYLOR, TX",TAYLOR,TX,WILLIAMSON
75860,"TEAGUE, TX",TEAGUE,TX,FREESTONE
76686,"TEHUACANA, TX",TEHUACANA,TX,LIMESTONE
75488,"TELEPHONE, TX",TELEPHONE,TX,FANNIN
77988,"TELFERNER, TX",TELFERNER,TX,VICTORIA
76501,"TEMPLE, TX",TEMPLE,TX,BELL
76502,"TEMPLE, TX",TEMPLE,TX,BELL
76503,"TEMPLE, TX",TEMPLE,TX,BELL
76504,"TEMPLE, TX",TEMPLE,TX,BELL
76505,"TEMPLE, TX",TEMPLE,TX,BELL
76508,"TEMPLE, TX",TEMPLE,TX,BELL
75974,"TENAHA, TX",TENAHA,TX,SHELBY
75861,"TENNESSEE COLONY, TX",TENNESSEE COLONY,TX,ANDERSON
76953,"TENNYSON, TX",TENNYSON,TX,COKE
79852,"TERLINGUA, TX",TERLINGUA,TX,BREWSTER
75160,"TERRELL, TX",TERRELL,TX,KAUFMAN
75161,"TERRELL, TX",TERRELL,TX,KAUFMAN
75501,"TEXARKANA, TX",TEXARKANA,TX,BOWIE
75503,"TEXARKANA, TX",TEXARKANA,TX,BOWIE
75504,"TEXARKANA, TX",TEXARKANA,TX,BOWIE
75505,"TEXARKANA, TX",TEXARKANA,TX,BOWIE
75507,"TEXARKANA, TX",TEXARKANA,TX,BOWIE
77590,"TEXAS CITY, TX",TEXAS CITY,TX,GALVESTON
77591,"TEXAS CITY, TX",TEXAS CITY,TX,GALVESTON
77592,"TEXAS CITY, TX",TEXAS CITY,TX,GALVESTON
73960,"TEXHOMA, TX",TEXHOMA,TX,SHERMAN
79087,"TEXLINE, TX",TEXLINE,TX,DALLAM
75056,"THE COLONY, TX",THE COLONY,TX,DENTON
77374,"THICKET, TX",THICKET,TX,HARDIN
77989,"THOMASTON, TX",THOMASTON,TX,DE WITT
77481,"THOMPSONS, TX",THOMPSONS,TX,FORT BEND
76577,"THORNDALE, TX",THORNDALE,TX,MILAM
76687,"THORNTON, TX",THORNTON,TX,LIMESTONE
76578,"THRALL, TX",THRALL,TX,WILLIAMSON
78071,"THREE RIVERS, TX",THREE RIVERS,TX,LIVE OAK
76483,"THROCKMORTON, TX",THROCKMORTON,TX,THROCKMORTON
78072,"TILDEN, TX",TILDEN,TX,MCMULLEN
75975,"TIMPSON, TX",TIMPSON,TX,SHELBY
76271,"TIOGA, TX",TIOGA,TX,GRAYSON
77990,"TIVOLI, TX",TIVOLI,TX,REFUGIO
76476,"TOLAR, TX",TOLAR,TX,HOOD
75489,"TOM BEAN, TX",TOM BEAN,TX,GRAYSON
77375,"TOMBALL, TX",TOMBALL,TX,HARRIS
77377,"TOMBALL, TX",TOMBALL,TX,HARRIS
79853,"TORNILLO, TX",TORNILLO,TX,EL PASO
78672,"TOW, TX",TOW,TX,LLANO
79785,"TOYAH, TX",TOYAH,TX,REEVES
79786,"TOYAHVALE, TX",TOYAHVALE,TX,REEVES
79561,"TRENT, TX",TRENT,TX,TAYLOR
75490,"TRENTON, TX",TRENTON,TX,FANNIN
75163,"TRINIDAD, TX",TRINIDAD,TX,HENDERSON
75862,"TRINITY, TX",TRINITY,TX,TRINITY
75789,"TROUP, TX",TROUP,TX,SMITH
76579,"TROY, TX",TROY,TX,BELL
78162,"TULETA, TX",TULETA,TX,BEE
79088,"TULIA, TX",TULIA,TX,SWISHER
79261,"TURKEY, TX",TURKEY,TX,HALL
79562,"TUSCOLA, TX",TUSCOLA,TX,TAYLOR
79563,"TYE, TX",TYE,TX,TAYLOR
75701,"TYLER, TX",TYLER,TX,SMITH
75702,"TYLER, TX",TYLER,TX,SMITH
75703,"TYLER, TX",TYLER,TX,SMITH
75704,"TYLER, TX",TYLER,TX,SMITH
75705,"TYLER, TX",TYLER,TX,SMITH
75706,"TYLER, TX",TYLER,TX,SMITH
75707,"TYLER, TX",TYLER,TX,SMITH
75708,"TYLER, TX",TYLER,TX,SMITH
75709,"TYLER, TX",TYLER,TX,SMITH
75710,"TYLER, TX",TYLER,TX,SMITH
75711,"TYLER, TX",TYLER,TX,SMITH
75712,"TYLER, TX",TYLER,TX,SMITH
75713,"TYLER, TX",TYLER,TX,SMITH
75799,"TYLER, TX",TYLER,TX,SMITH
78391,"TYNAN, TX",TYNAN,TX,BEE
79091,"UMBARGER, TX",UMBARGER,TX,RANDALL
78148,"UNIVERSAL CITY, TX",UNIVERSAL CITY,TX,BEXAR
78884,"UTOPIA, TX",UTOPIA,TX,UVALDE
78801,"UVALDE, TX",UVALDE,TX,UVALDE
78802,"UVALDE, TX",UVALDE,TX,UVALDE
79854,"VALENTINE, TX",VALENTINE,TX,PRESIDIO
76884,"VALERA, TX",VALERA,TX,COLEMAN
76689,"VALLEY MILLS, TX",VALLEY MILLS,TX,BOSQUE
76272,"VALLEY VIEW, TX",VALLEY VIEW,TX,COOKE
75790,"VAN, TX",VAN,TX,VAN ZANDT
75495,"VAN ALSTYNE, TX",VAN ALSTYNE,TX,GRAYSON
79855,"VAN HORN, TX",VAN HORN,TX,CULBERSON
77482,"VAN VLECK, TX",VAN VLECK,TX,MATAGORDA
76955,"VANCOURT, TX",VANCOURT,TX,TOM GREEN
77991,"VANDERBILT, TX",VANDERBILT,TX,JACKSON
78885,"VANDERPOOL, TX",VANDERPOOL,TX,BANDERA
79092,"VEGA, TX",VEGA,TX,OLDHAM
76084,"VENUS, TX",VENUS,TX,JOHNSON
76886,"VERIBEST, TX",VERIBEST,TX,TOM GREEN
76384,"VERNON, TX",VERNON,TX,WILBARGER
76385,"VERNON, TX",VERNON,TX,WILBARGER
77901,"VICTORIA, TX",VICTORIA,TX,VICTORIA
77902,"VICTORIA, TX",VICTORIA,TX,VICTORIA
77903,"VICTORIA, TX",VICTORIA,TX,VICTORIA
77904,"VICTORIA, TX",VICTORIA,TX,VICTORIA
77905,"VICTORIA, TX",VICTORIA,TX,VICTORIA
77662,"VIDOR, TX",VIDOR,TX,ORANGE
77670,"VIDOR, TX",VIDOR,TX,ORANGE
77663,"VILLAGE MILLS, TX",VILLAGE MILLS,TX,HARDIN
76887,"VOCA, TX",VOCA,TX,MCCULLOCH
78073,"VON ORMY, TX",VON ORMY,TX,BEXAR
76888,"VOSS, TX",VOSS,TX,COLEMAN
77376,"VOTAW, TX",VOTAW,TX,HARDIN
76701,"WACO, TX",WACO,TX,MCLENNAN
76702,"WACO, TX",WACO,TX,MCLENNAN
76703,"WACO, TX",WACO,TX,MCLENNAN
76704,"WACO, TX",WACO,TX,MCLENNAN
76705,"WACO, TX",WACO,TX,MCLENNAN
76706,"WACO, TX",WACO,TX,MCLENNAN
76707,"WACO, TX",WACO,TX,MCLENNAN
76708,"WACO, TX",WACO,TX,MCLENNAN
76710,"WACO, TX",WACO,TX,MCLENNAN
76711,"WACO, TX",WACO,TX,MCLENNAN
76714,"WACO, TX",WACO,TX,MCLENNAN
76715,"WACO, TX",WACO,TX,MCLENNAN
76716,"WACO, TX",WACO,TX,MCLENNAN
76798,"WACO, TX",WACO,TX,MCLENNAN
76799,"WACO, TX",WACO,TX,MCLENNAN
77483,"WADSWORTH, TX",WADSWORTH,TX,MATAGORDA
78959,"WAELDER, TX",WAELDER,TX,GONZALES
79093,"WAKA, TX",WAKA,TX,OCHILTREE
78673,"WALBURG, TX",WALBURG,TX,WILLIAMSON
76957,"WALL, TX",WALL,TX,TOM GREEN
77484,"WALLER, TX",WALLER,TX,HARRIS
77485,"WALLIS, TX",WALLIS,TX,AUSTIN
77597,"WALLISVILLE, TX",WALLISVILLE,TX,CHAMBERS
76690,"WALNUT SPRINGS, TX",WALNUT SPRINGS,TX,BOSQUE
78960,"WARDA, TX",WARDA,TX,FAYETTE
78074,"WARING, TX",WARING,TX,KENDALL
77664,"WARREN, TX",WARREN,TX,TYLER
77880,"WASHINGTON, TX",WASHINGTON,TX,WASHINGTON
75692,"WASKOM, TX",WASKOM,TX,HARRISON
76958,"WATER VALLEY, TX",WATER VALLEY,TX,TOM GREEN
75165,"WAXAHACHIE, TX",WAXAHACHIE,TX,ELLIS
75167,"WAXAHACHIE, TX",WAXAHACHIE,TX,ELLIS
75168,"WAXAHACHIE, TX",WAXAHACHIE,TX,ELLIS
79094,"WAYSIDE, TX",WAYSIDE,TX,ARMSTRONG
76085,"WEATHERFORD, TX",WEATHERFORD,TX,PARKER
76086,"WEATHERFORD, TX",WEATHERFORD,TX,PARKER
76087,"WEATHERFORD, TX",WEATHERFORD,TX,PARKER
76088,"WEATHERFORD, TX",WEATHERFORD,TX,PARKER
77598,"WEBSTER, TX",WEBSTER,TX,HARRIS
77993,"WEESATCHE, TX",WEESATCHE,TX,GOLIAD
78962,"WEIMAR, TX",WEIMAR,TX,COLORADO
76388,"WEINERT, TX",WEINERT,TX,HASKELL
78674,"WEIR, TX",WEIR,TX,WILLIAMSON
79377,"WELCH, TX",WELCH,TX,DAWSON
77881,"WELLBORN, TX",WELLBORN,TX,BRAZOS
79095,"WELLINGTON, TX",WELLINGTON,TX,COLLINGSWORTH
79378,"WELLMAN, TX",WELLMAN,TX,TERRY
75976,"WELLS, TX",WELLS,TX,CHEROKEE
78596,"WESLACO, TX",WESLACO,TX,HIDALGO
78599,"WESLACO, TX",WESLACO,TX,HIDALGO
76691,"WEST, TX",WEST,TX,MCLENNAN
77486,"WEST COLUMBIA, TX",WEST COLUMBIA,TX,BRAZORIA
78963,"WEST POINT, TX",WEST POINT,TX,FAYETTE
79565,"WESTBROOK, TX",WESTBROOK,TX,MITCHELL
77994,"WESTHOFF, TX",WESTHOFF,TX,DE WITT
75485,"WESTMINSTER, TX",WESTMINSTER,TX,COLLIN
75097,"WESTON, TX",WESTON,TX,COLLIN
77488,"WHARTON, TX",WHARTON,TX,WHARTON
79096,"WHEELER, TX",WHEELER,TX,WHEELER
77882,"WHEELOCK, TX",WHEELOCK,TX,ROBERTSON
79097,"WHITE DEER, TX",WHITE DEER,TX,CARSON
75693,"WHITE OAK, TX",WHITE OAK,TX,GREGG
79379,"WHITEFACE, TX",WHITEFACE,TX,COCHRAN
75791,"WHITEHOUSE, TX",WHITEHOUSE,TX,SMITH
76273,"WHITESBORO, TX",WHITESBORO,TX,GRAYSON
75491,"WHITEWRIGHT, TX",WHITEWRIGHT,TX,GRAYSON
76692,"WHITNEY, TX",WHITNEY,TX,HILL
78075,"WHITSETT, TX",WHITSETT,TX,LIVE OAK
76301,"WICHITA FALLS, TX",WICHITA FALLS,TX,WICHITA
76302,"WICHITA FALLS, TX",WICHITA FALLS,TX,WICHITA
76305,"WICHITA FALLS, TX",WICHITA FALLS,TX,WICHITA
76306,"WICHITA FALLS, TX",WICHITA FALLS,TX,WICHITA
76307,"WICHITA FALLS, TX",WICHITA FALLS,TX,WICHITA
76308,"WICHITA FALLS, TX",WICHITA FALLS,TX,WICHITA
76309,"WICHITA FALLS, TX",WICHITA FALLS,TX,WICHITA
76310,"WICHITA FALLS, TX",WICHITA FALLS,TX,WICHITA
79788,"WICKETT, TX",WICKETT,TX,WARD
79098,"WILDORADO, TX",WILDORADO,TX,OLDHAM
77318,"WILLIS, TX",WILLIS,TX,MONTGOMERY
77378,"WILLIS, TX",WILLIS,TX,MONTGOMERY
78675,"WILLOW CITY, TX",WILLOW CITY,TX,GILLESPIE
75169,"WILLS POINT, TX",WILLS POINT,TX,VAN ZANDT
75172,"WILMER, TX",WILMER,TX,DALLAS
79381,"WILSON, TX",WILSON,TX,LYNN
78676,"WIMBERLEY, TX",WIMBERLEY,TX,HAYS
75492,"WINDOM, TX",WINDOM,TX,FANNIN
76389,"WINDTHORST, TX",WINDTHORST,TX,ARCHER
75493,"WINFIELD, TX",WINFIELD,TX,TITUS
79566,"WINGATE, TX",WINGATE,TX,RUNNELS
79789,"WINK, TX",WINK,TX,WINKLER
77665,"WINNIE, TX",WINNIE,TX,CHAMBERS
75494,"WINNSBORO, TX",WINNSBORO,TX,WOOD
75792,"WINONA, TX",WINONA,TX,SMITH
79567,"WINTERS, TX",WINTERS,TX,RUNNELS
75978,"WODEN, TX",WODEN,TX,NACOGDOCHES
75496,"WOLFE CITY, TX",WOLFE CITY,TX,HUNT
79382,"WOLFFORTH, TX",WOLFFORTH,TX,LUBBOCK
75865,"WOODLAKE, TX",WOODLAKE,TX,TRINITY
75694,"WOODLAWN, TX",WOODLAWN,TX,HARRISON
78393,"WOODSBORO, TX",WOODSBORO,TX,REFUGIO
76491,"WOODSON, TX",WOODSON,TX,THROCKMORTON
75979,"WOODVILLE, TX",WOODVILLE,TX,TYLER
76712,"WOODWAY, TX",WOODWAY,TX,MCLENNAN
76693,"WORTHAM, TX",WORTHAM,TX,FREESTONE
75098,"WYLIE, TX",WYLIE,TX,COLLIN
78886,"YANCEY, TX",YANCEY,TX,MEDINA
75497,"YANTIS, TX",YANTIS,TX,WOOD
77995,"YOAKUM, TX",YOAKUM,TX,LAVACA
78164,"YORKTOWN, TX",YORKTOWN,TX,DE WITT
78076,"ZAPATA, TX",ZAPATA,TX,ZAPATA
75980,"ZAVALLA, TX",ZAVALLA,TX,ANGELINA
76890,"ZEPHYR, TX",ZEPHYR,TX,BROWN
,,,,
,,,,
"For more information, kindly visit : www.downloadexcelfiles.com",,,,
